"Name","Phone","Address","City","State","Zip","Country"
"3D Archery","406-965-3236","775 Couch Ave","Vaughn","MT","59487",
"Abbey Archery","011 61 2 8850 6400","Unit 10, 8 Victoria Ave","Castle Hill",,"2154","Australia"
"Above Timberline","801-465-4847","202 West 1600 South","Payson","UT","84651",
"ABSOLUTE ARCHERY","530-672-1002","DEBORAH MACK","SHINGLE SPRINGS","CA","95682",
"Achterberg Archery","608-429-2308","N7120 Pardeeville Rd","Pardeeville","WI","53954",
"Acorn Archery Pro Shop","724-656-8737","2372 Harlansburg Road","New Castle","PA","16101",
"Adams Archery","734-461-0266","7730 Willow Rd","Milan","MI","48160",
"Adkins-Joe","304-654-2009","2400 Prichard Rd","Ona","WV","25545",
"Advanced Archery","920-853-3131","320 W. Main St","Hilbert","WI","54129",
"Advantage Archery - ID","208-735-9878","Caleb Drake","Twin Falls","ID","83301",
"AJ'S Archery","315-655-2697","3938 Nelson Heights Road","Cazenovia","NY","13035",
"Albrecht Taxidermy","608-897-2313","2307 1st Center Ave","Broadhead","WI","53520",
"All Season Sports","763-972-3112","Shawn Lynch","Delano","MN","55328",
"Allied Archery","734-529-5269","126 Main Street","Dundee","MI","48131",
"Alpine Archery","541-963-4671","117 Elm Street","La Grande","OR","97850",
"Alvarado Archery","817-783-7300","6011 Hwy 67","Alvarado","TX","76009",
"American Motorcycle/AMA","920-825-7707","1223 CR DK","Brussels","WI","54204",
"American Outdoor Warehouse","814-452-3435","Scott Corsole","Erie","PA","16502",
"Among Archery","808-885-7002","64-5290 Puu Nanea St.","Kamuela","HI","96743",
"Anchor Point Archery","715-268-5250","107 Power Street","Amery","WI","54001",
"Andover Archery","860-742-4279","398 Hebron Rd.","Andover","CT","06232",
"Appleland Sports Supply","608-735-4470","PO Box 22","Gays Mills","WI","54631",
"Arc Elite","514-252-8315","5946, rue Hochelaga","Montreal","QC","H1N 1X1","Canada"
"Archer's Addiction","605-543-6040","47219 Schweigers Circle","Sioux Falls","SD","57107",
"Archer's Afield","503-639-3553","11945 SW Pacific Hwy","Portland","OR","97223",
"Archer's Den-OK","580-490-9979","615 3rd Avenue NW","Ardmore","OK","73401",
"Archer's Edge-SA",,"104 Heketh Street","Moraleta Park",,"0044","South Africa"
"Archer's Nook","519-455-3021","Box 35033","London","ON","N5W 5Z6","Canada"
"Archer's Quest","920-230-2697 (oshkosh)","314 N Koeller St","Oshkosh","WI","54902",
"Archerie Mania","05.65.44.78.17","Hameau de Curlande","BOZOULS",,"12340","France"
"Archers Afield","503-639-3553","11945 SW Pacific Hwy , Ste. #121","Tigard","OR","97223",
"Archers Alley","217-853-5961","Nathaniel Frazier","Decatur","IL","62526",
"Archers Pro Shop","870-435-4343","PO Box 253","Cotter","AR","72626",
"Archery @ The Glenn","610-791-7665","7 Auburn Street","Allentown","PA","18103",
"Archery Angels, LLC","404-201-5855","504 E Virginia Ave","Tampa","FL","33603",
"Archery Connection LLC","334-480-9997","3022 Lakewood Dr","Phenix City","AL","36867",
"Archery Country- TX","512-452-1222","8121 Research Blvd.","Austin","TX","78758",
"Archery Headquarters","480-961-3100","6401 W. Chandler Blvd","Chandler","AZ","85226",
"Archery Headquarters-MN","800-282-3507","3440 Northern Valley Place NE","Rochester","MN","55906",
"Archery In The Wild","720-652-9100","1725 Vista View Drive","Longmont","CO","80504",
"Archery Only","510-795-0460","37300 Cedar Blvd","Newark","CA","94560-4165",
"Archery Outfitters - AR","870-779-9459","3601 Jefferson Ave","Texarkana","AR","71854",
"Archery Outpost","918-938-6476","4420 S Mingo","Tulsa","OK","74146",
"Archery Quest","417-863-8060","2900-A East Pythian","Springfield","MO","65802",
"Archery Shoppe","505-278-9768","2910 Carlisle NE","Albuquerque","NM","87110",
"Archery Spot","517-254-4455","3400 E Territorial Rd","Camden","MI","49232",
"Archery Supplies-AUS","+61 02 6239 2899","Unit 4","Lonsdale",,"5160","Australia"
"Archery World","360-693-7510","803 Grand Blvd","Vancouver","WA","98661",
"Arizona Archery Club and Pro-Shop","623-266-4647","5630 E Paradise Lane","Scottsdale","AZ","85254",
"Arizona Archery Outfitters(Bull Basin)","928-699-0477","1550 S Craycroft Road","Tucson","AZ","85711",
"Arrowsmith Outfitters","817-703-8817","2809 Victor Court","Arlington","TX","76013",
"Ashley's Archery & Taxidermy","252-636-1582","3819 Dr. MLK Blvd","New Bern","NC","28562",
"AUDETTE'S INC","207-377-2711","LEE ROBINSON","WINTHROP","ME","04364",
"Autumn Addiction","234-244-4515","3278 State Rt 5","Cortland","OH","44410",
"B & B Archery, Inc. - MS","601-939-4380","810 Clearmont Drive","Pearl","MS","39208",
"B & G Pro Shop","304-589-7432","381 Sportsman Drive","Bluefield","WV","24701",
"B Squared Archery",,"4700D Southwest Topeka Drive","Topeka","KS","66609",
"B&K Archery Service","530-342-0110","39 El Cerrito Dr.","Chico","CA","95973",
"B.B Archery","816-763-2699","8709 Booth Avenue","Kansas City","MO","64138",
"Backwoods Hunting Specialties","417-264-3025","Bruce Meyer","Thayer","MO","65791",
"Baldurs","651-452-8840","Orbaekvej 6","Brande",,"7330","Denmark"
"Banger's Sport Shop-NJ","609-561-1717","840 Piney Hollow rd","Winslow Township","NJ","08037",
"Bass & Bucks","260-569-1853","Bass and Bucks #1039","Lewistown","MT","59457",
"Bass Pro Shops",,"Sprtsman's Park Center","Springfield","MO","65898",
"Bean Outdoors","336-564-2400","612 Sunset Rd","Clemmons","NC","27012",
"Bear Mountain Sports","480-926-7161","899 E Southern","Mesa","AZ","85204",
"Belmont Archery Outfitters","585-973-7312","6381 County Road 20","Friendship","NY","14739",
"Ben's Archery","541-963-5871","2706 N Spruce Street","LaGrande","OR","97850",
"Benton Shooters Supply","423-338-2008","PO Box 667","Benton","TN","37307",
"Better Outdoors Archery","870-475-DEER","214 Greenwood Ave","Lepanto","AR","72354",
"Betts Archery","419-422-8451","15803 CR 216","Arcadia","OH","44804",
"Big Bear Outfitters","360-275-6631","PO Box 303","Vaughn","WA","98394",
"Big O's Archery","903-870-2114","1520 Texoma Pkwy","Sherman","TX","75090",
"Big Rock Sports","252-726-6186","Henrys Richmond County","Morehead CIty","NC","28557",
"Big Sky Archery","406-388-0503","77 Laura Louise Lane","Bozeman","MT","59718",
"Bill Pellegrino's Archery Hut","719-638-0554","6325 E. Platet Ave","Colorado Springs","CO","80915",
"Bitter Root Valley Archery","406-241-4176","16670 Old US Hwy 93 South","Florence","MT","59833",
"BKIII Archery","414-331-5412","W151 56438 Glenbrook Dr.","Muskego","WI","53150",
"Black Sheep Sporting Goods","208-667-7831","Black Sheep Sporting Goods","Coeur D'Alene","ID","83815",
"Blevins Archery Center","573-547-6112","200 N. French Lane & Hwy 51","Perryville","MO","63775",
"Blind Ambition Hunting Supply","888-317-7355","Nick Noll","Cross Plains","WI","53528",
"Bob's Sporting Goods","360-425-3870","1111 Hudson Street","Longview","WA","98632",
"Borkholder Archery","574-773-0306","72945 Co. Rd. 17","Middford","IN","46542",
"Bow Hunters Unlimited","715-627-4773","N1180 Trout Rd","Antigo","WI","54409",
"Bow N Arrow Shop","619-443-5488","9748 Los Coches Road","Lakeside","CA","92040",
"Bow Pro Shop","918-683-8879","1920 1/2 N 11th St","Muskogee","OK","74401",
"Bowhunters Supply Store","770-834-3044","1385 E Hwy 166","Bowdon","GA","30108",
"Bowie Outfitters","225-766-1200","8630 Perkins Road","Baton Rouge","LA","70810",
"Broadside Archery-AUS",,"2/196 Gladstone St.","Fyshwick",,"2609","Australia"
"Broken Arrow Archery",,"2044 SE Adams Street","Milwaukie","OR","97222",
"Broken Arrow Archery-WI","920-982-0769","W2588 Sievert Td","Seymour","WI","54165",
"Browns Sporting Goods",,"7281 S State Road","Goodrich","MI","48438",
"Brunner's Archery & Outfitters","920-686-1297","3009 Menesha Ave","Menitowoc","WI","54220",
"Buck Rub","262-547-0535","N13 W28400 Silvernail Rd","Pewaukee","WI","53072",
"Buck Stop Archery","618-427-5264","RR1 Box 417A","Vandalia","IL","62471",
"Buck Stop Archhery (west dundee)","847-844-3337","Rt 1 Box 417A","Vandalia","IL","62471",
"Bucks & Jakes","812-897-4285","3655 Hwy 62 W","Boonville","IN","47601",
"Buffalo Jump Archery","406-449-3111","PO Box 5581","Helena","MT","59604",
"Bugs N Bullets","406-782-7311","40 Sportsman Way","Butte","MT","59701",
"Bull Basin","928-526-1025","2566 E 7th Ave","Flagstaff","AZ","86004",
"Bulls Eye Archery","231-757-9801","656 N Reek Road","Custer","MI","49405",
"Bwana Archery","651-482-9866","3015 Country Drive","St. Paul","MN","55117",
"C & S Archery","936-588-4443","424-A McCaleb Rd","Montgomery","TX","77316",
"C.D.M",,"710 North Main Street","Geneva","IN","46740",
"Cabelas","308-255-1265","PO Box 277","Sidney","NE","69160",
"Cabelas-Canada","204-788-4867","766 Pandora Ave, E","Winnipeg","MB","R2C 4S2","Canada"
"Camo'd Arrow Archery","509-935-6244","1965 Hwy 395 S","Chewelah","WA","99109",
"CAMOFIRE LLC","801-676-9631","Kendall Card","West Valley","UT","84119",
"Capital Sports","406-443-2978","1092 Helena Ave","Helena","MT","59601",
"CHEROKEE OUTFITTERS","864-902-9598","WILL GREGORY","GAFFNEY","SC","29341",
"Chesapeake Outdoors","410-604-2500","1707 Main Street","Chester","MD","21619",
"Cheyenne Mountain Outfitters","609-570-8430","691 Route 130","Robbinsville","NJ","08691",
"Chuck's Archery","724-206-0662","2301 Jefferson Ave","Washington","PA","15301",
"Cinnamon Creek Ranch","817-439-8998","13794 Old Denton Rd","Roanoke","TX","76262",
"Combo Sports Distribution",,"1175 Williams Road","Columbus","OH","43207",
"Copperhead Gun and Archery LLC","606-285-3454","Tonya Conley","Langley","KY","41645",
"Country Village Sporting Goods, LLC","870-862-7799","965 Smackover Hwy","El Dorado","AR","71730",
"COVINGTON'S ACE HARDWARE","601-276-9544","CRISTY HOLLOWAY","SUMMIT","MS","39666",
"Coyote Creek Gun & Archery","507-289-8308","3600 S Broadway","Rochester","MN","55904",
"Cradle Butte Archery","307-751-8519","Kelly Abelmann","Rozet","WY","82727",
"Crazy Horse Archery & Tackle","270-789-3776","2422 New Columbia Rd","Campbellsville","KY","42718",
"Crooked Creek Archery","304-375-2434","16 Plum Run Rd","Williamstown","WV","26187",
"Culpepper Archery","706-595-3512","PO Box 1016","Thomson","GA","30824",
"Custom Archery & Outdoors, Inc.",,"1230 Poplar Ave","Superior","WI","54880",
"Dave's Archery","814-725-1232","10253 Station Road","North East","PA","16428",
"Dead On Archery","208-922-9744","2006 E. Franklin Rd","Meridian","ID","83642",
"Desert Archery","928-681-4007","4045 N Bank St","Kingman","AZ","86409",
"Deweys Pawn Shop","864-422-0072","5900 Augusta Rd","Greenville","SC","29605",
"Diamond Archery","316-265-0651","926 W. Harry","Wichita","KS","67213",
"Dick's Sporting Goods",,"345 Court St.","Coraopolis","PA","15108",
"DNW Outdoors","870-972-5827","1711 E Parker Road","Jonesboro","AR","72404",
"Dorroh Seed & Supply","573-359-2222","2501 E Highway 84","Hayti","MO","63851",
"Double G Archery","512-868-5530","4185B East Highway 29","Georgetown","TX","78626",
"Down Wind Archery",,"7323 E. Ririe Hwy","Idaho Falls","ID","83401",
"Dragon Flight Archery","403-637-0266","Box 629","Cremona","AB","T0M 0R0","Canada"
"Dunn's Sporting Goods","618-997-3626","1904 W Rendleman","Marion","IL","62959",
"Duplay-Richard","920-321-0154","1147 Hillcrest Heights","Green Bay","WI","54313",
"Erhart Sports","03 89 06 30 30","6,",,"Rue De I'll",,"France"
"Eunice Archery Range & Gear LLC","337-466-3930","Mike Hebert","Eunice","LA","70535",
"Extreme Archery-NY","914-777-7500","801 E. Boston Post Rd.","Manaroneck","NY","10543",
"Extreme Performance Archery","406-586-8785","703 Bridger Dr","Bozeman","MT","59718",
"Farris Brothers","601-264-8444","24 Ratcliff Lane","Hattiesburg","MS","39404",
"Farwest Sports / Sportco","253-922-2581","4602 20th St. E","Fife","WA","98424",
"Field and Stream",,,,,,
"Flaming Arrow Archery","406-752-0702","2662 US Highway 2 E","Kalispell","MT","59901",
"Flying Arrow Sports",,"92 Old Route 6","Carmel","NY","10512",
"Forge Bow",,"406 Travis Lane Bldg. 47","Waukesha","WI","53189",
"Four Rivers 3D Archery",,"7744 Cedar Valley Rd","Floodwood","MN","55736",
"Foutz's Hunting & FIshing LLC",,"68 S Plaza Way","Cape Girardeau","MO","63701",
"Full Curl Archery",,"PO Box 222285","Anchorage","AK","99522",
"Full Draw Addiction","208-220-6081","PO Box 86","Montpelier","ID","83254",
"Game Masters",,"5100 Broadway","Quincy","IL","62305",
"Gander Mountain",,"ATTN: Accouts Payable","St. Paul","MN","55101",
"GANNETT RIDGE HUNTING EQUIPMENT",,"TYLER MATTHEWS","FORT COLLINS","CO","80524",
"Golden Arrow Archery",,"Box 1652","Regina",,"S4P 3C4","Canada"
"GOODS FOR THE WOODS",,"33 2ND AVE NORTH","LEWISTON","MT","59457",
"GOOSE HUMMOCK SHOP","508-255-0455","GOOSE HUMMOCK SHOP #1079","LEWISTON","MT","59457",
"Gun World & Archery Pro Shop","812-738-0935","1548 Hwy 62 NW","Corydon","IN","47112",
"H G & H Archery",,"4819 Hwy 16","Conover","NC","28613",
"H&H Archery Supply","320-963-5118","PO Box 363","Maple Lake","MN","55358",
"H&H Shooting Sports",,"400 S Vermont","Oklahoma City","OK","73108",
"Hall's Arrow Indoor Archery Range","860-646-4565","291 W Middle Tpke","Manchester","CT","06040",
"Heartland Outdoors",,"1 Heartland Drive","S. Hutchinson","KS","67505",
"Hickory Ridge Archery","608-994-3050","10597 Hickory Road","Bloomington","WI","53804",
"High Desert Archery",,"1836 W. Amador Ave","Las Cruces","NM","88005",
"Higley's Archery","814-654-7939","17857 Hwy 8","Centerville","PA","16404",
"Hoffman Archery",,"5185 Lee Hwy","Warrenton","VA","20187",
"Hoffmeyer & Sons Archery",,"3300 Brewer Rd.","Howell","MI","48855",
"Honey Creek Outdoors (formerly R & S Ant)","918-791-1195","31902 S. 622 Rd","Grove","OK","74344",
"HOPE ON THE HORIZON OUTDOORS",,"REBECCA TRENKINS","GRANITE FALLS","WA","98252",
"Horizontal Archery",,"37432 5th Ave.","Sardis","OH","43946",
"Hunter's Refuge",,"7013 Dollarway Road","White Hall","AR","71602",
"Hunter's Shack",,"429 E CR 200 N","Arcola","IL","61910",
"In Pursuit 365 / Johnny Brown",,"Johnny Brown","Derry","NH","03038",
"J's Archery Pro Shop","715-627-2697","2763 Highway 45 North","Antigo","WI","54409",
"J ANDJ ARCHERY",,"JAMIE GREISS","MERTZTOWN","PA","19539",
"Jake's Archery","801-225-9202","765 South Orem Blvd","Orem","UT","84058",
"Jay's Sporting Goods","989-705-1339","PO Box 238","Clare","MI","48617",
"Jim Bows Archery",,"#102 - 620 46th Avenue N.E.","Calgary","AB","T2E 8M9","Canada"
"Johns Bow Shop","218-444-2046","515 Centerpoint Ct. NW","Bemidji","MN","56601",
"Jon's Sport Shop","920-233-5533","2968 Jackson Rd","Oshkosh","WI","54901",
"JSO Enterprises","808-936-6181","398 Leoiki Place","Hilo","HI","96720",
"K & S OUTDOORS","205-468-2190","SPORTS INC #1042","LEWISTON","MT","59457",
"Kinetic Archery","920-609-7163","2670 S Packerland Dr.","Green Bay","WI","54313",
"Kinseys Archery Products","717-653-9074","1660 Steel Way Drive","Mt. Joy","PA","17552",
"LaCrosse Archery",,"1231 Oak Forest Drive","Onalaska","WI","54650",
"Lake Country Archery",,"PO Box 313","Alba","TX","75410",
"Lancaster Archery","800-829-7408","21 Graybill Road","Leola","PA","17540",
"Leaf River Sports",,"1718 Evelyn Gandy Pkwy","Hattiesburg","MS","39401",
"Little Jons Archery","608-478-0880 - Ext. for Jodi 101","5346 Missouri Road","Marshall","WI","53559",
"M'Arco Archery di Seri Marco",,"Marco Seri","Belforte del Chienti Macerata",,"62020","Italy"
"Macks Prairie Wings",,"PO Box 1290","Stuttgart","AR","72160",
"Macrotech Accessories, Ltd",,"5826 Gov. Ritchie Hwy","Baltimore","MD","21225-3751",
"Maurice Sporting Goods","847-715-1381","1910 Techny Rd","Northbrook","IL","60065",
"Mesquite Archery",,"5711 A Kenwick Drive","San Antonio","TX","78238",
"Midway USA","573-445-6363 x2381","5875 W. Van Horn Tavern Rd","Columbia","MO","65203",
"Mike's Outdoor Sports",,"PO Box 189","Jay","FL","32565",
"Mikes Archery",,"2630 State Route 141","Ironton","OH","45638",
"Mile High Archery","928-632-5004","8708 East Hwy 69 #C","Prescott Valley","AZ","86314",
"Monsen's Sporting Goods","705-748-6811ext 27-David Rye","619 The Queensway","Peterborough","ON","K9J 7B1","Canada"
"Morley-Jason",,"PFM2",,,,
"Mouldy's Archery & Tackle",,"2863 S. Prairie View Road","Chippewa Falls","WI","54729",
"Mr Guns & The Archery Shop",,"MICHAEL J ROSTECK","CEDAR FALLS","IA","50613",
"Nocked & Loaded",,"302 South Western Ave","Lampasas","TX","76550",
"Norman Archery","405-636-1415","8317 Gateway Terrace","Oklahoma City","OK","73149",
"NORTH 40 OUTFITTERS",,"PO Box 6430","Great Falls","MT","59406",
"North American Hunting Supplies",,"RR3 Site 303 Comp. 29","Onoway","AB","T0E1V0",
"Northern Dutchess Archery",,"7375 South Broadway","Red Hook","NY","12571",
"Obsession Archery",,"8289 Burden Road","Machesney Park","IL","61115",
"Obsidian Archery",,"245 N Canyon City Blvd","Canyon City","OR","97820",
"Oceans East","757-464-6545","OCEANS EAST #6007","NorthLewiston","MT","59457",
"Ohio Valley Trading",,"25 E Stimson Ave","Athens","OH","45701",
"On Target-TX","903-865-8880","29993 State Hwy 64","Canton","TX","75103",
"Ozark Sportsman Supply",,"PO Box 940","Tontitown","AR","72770",
"Pacific Flyway/Sportsman's Warehouse",,"7035 S High Tech Drive","Midvale","UT","84047-3759",
"Paducah Shooters Supply",,"Chance Clanahan","Paducah","KY","42001",
"Pape's",,"250 Terry Blvd","Louisville","KY","40229",
"Pat's Archery","918-756-4632","12601 Hwy 75","Okmulgee","OK","74447",
"Pat's Archery & Outdoors",,"306 Hwy 78 West","Jasper","AL","35501",
"Pelkey's Archery",,"275 Nason Street","St. Albans","VT","05478",
"Performance Archery",,"8390 Miramar Place","San Diego","CA","92121",
"Pike County Archery","217-285-1610","7 E Industrial Dr.","Pittsfield","IL","62363",
"Point Blank Sporting Goods","956-992-8799","Point Blank Sporting Goods #1036","Lewiston","MT","59457",
"Porcupine Creek Supply",,"4220 17th Street SE","Calgary","AB","T2G 3W6","Canada"
"Potshot Archery",,"74 Wakis Ave","Strijdompark",,"2194","South Africa"
"Prairie Archery",,"1025 South Otter Ave","Parkers Prairie","MN","56361",
"Predator Archery-AUS",,"34/119 Reichardt Rd, Winnellie","Darwin","NT","0820","Australia"
"Quality Archery",,"19821 Hwy P","Verona","MO","65769",
"Quincy Bow Pro","217-222-2222","3112 Broadway","Quincy","IL","62301",
"R & R Sport Shop",,"16 Federal Street","Belchertown","MA","01007",
"R C Archery",,"420 S. Main","Clute","TX","77531",
"Rack N Reel",,"4665 Ethan Allen Hwy","New Haven","VT","05472",
"Ranch & Home","509-737-1996","845 N Columbia Center Blvd","Kennewick","WA","99336",
"Red Lion Archery",,"103 E Broadway","Red Lion","PA","17356",
"Reeve's Sport Shop",,"1943 West Chestnut Street","Washington","PA","15301",
"Riverside Archery-WA",,"17370 SR536","Mount Vernon","WA","98273",
"Rock Creek Archery LLC",,"930 Battersby Ave, Ste 105","Enumclaw","WA","98022",
"Rocky Mountain Archery",,"304 E Park","Butte","MT","59701",
"Rocky Mountain Archery - CO",,"4518 Innovation Drive","Fort Collins","CO","80525",
"Rocky Mountain Discount Sports",,"Shawn Wagner","Casper","WY","82604",
"Rocky Mountain Sports","307-672-3418","440 Broadway","Sheridan","WY","82801",
"Rogers Sporting Goods",,"1760 N Church Rd","Liberty","MO","64068",
"Ross Outdoors",,"5825 W Van Buren","Phoenix","AZ","85043",
"S-Appleton","920-830-2977","4301 W Wisconsin Ave","Appleton","WI","54913",
"S-Billings","406-656-9220","1121 Shiloh Crossing Blvd","Billings","MT","59102",
"S-Cedar Falls","319-277-3033","402 Viking Plaza Drive","Cedar Falls","IA","50613",
"S-College Square","319-277-3033","College SQ Mall","Cedar Falls","IA","50613",
"S-Corporate","701-232-3665","Craig Enervold","Fargo","ND","58103",
"S-Dakota Square","701-852-1010","Minot Dakota Square","Minot","ND","58701",
"S-Des Moines","515-727-4065","101 Jordan Creek Pkwy","West Des Moines","IA","50266",
"S-Eau Claire","715-833-1886","4710 Golf Rd","Eau Claire","WI","54701",
"S-Fargo","701-298-2918","1551 45th St. S","Fargo","ND","58103",
"S-Grand Fork","701-780-9424","1375 S. Columbia Rd. Ste A","Grand Forks","ND","58201",
"S-Great Falls","406-453-7666","1200 10th Ave South","Great Falls","MT","59405",
"S-Iowa City","319-625-9959","1461 Coral Ridge Ave","Coralville","IA","52241",
"S-Kirkwood","701-255-7255","800 Kirkwood Mall","Bismarck","ND","58504-5721",
"S-Lincoln","402-420-9000","2960 Pine Lake Road","Lincoln","NE","68516",
"S-Omaha","402-289-5666","17202 Davenport Street","Omaha","NE","68118",
"S-Rapid City","605-342-9033","1225 Eglin Street","Rapid City","SD","57701",
"S-Reno Sparks","775-331-2700","1200 Scheels Drive","Sparks","NV","89434",
"S-Rimrock Mall","406-656-9220","Rimrock Mall","Billings","MT","59102",
"S-River Hills","507-386-7767","1850 Adams Street","Mankato","MN","56001",
"S-Sandy","801-948-7080","11282 South State Street","Sandy","UT","84070",
"S-Sioux Falls","605-334-7767","2101 West 41st Street","Sioux Falls","SD","57105",
"S-Southern Hill",,"4400 Sergeant Road","Sioux Falls","IA","51106",
"S-Springfield","217-726-6330","3801 S MacArthur Blvd","Springfield","IL","62711-6436",
"S-St. Cloud","320-252-9494","40 North Waite Ave","Waite Park","MN","56387",
"S&S Sport Shop -PA",,"1010 E Main Street","Rockwood","PA","15557",
"SANDERS ARCHERY SUPPLY","870-836-8844","TERRY SANDERS","CAMDEN","AR","71701",
"SARL Archer's Supply","+33 4 74 67 37 79","Zac d'Epinay","GLEIZE",,"69400","France"
"Screaming Eagle Archery","907-376-2699","200 Park Ave","Wasilla","AK","99654",
"Shawmut Distributors",,"301 US Rt 1","Kittery","ME","03904",
"Sherwood Archerie",,"31 Rte De Bischwiller","Schiltighein 67300",,,"France"
"Simmons Sporting Goods","318-283-2688","918 N Washington","Bastrop","LA","71220",
"Skip's Archery",,"PO Box 10","Mineral Springs","NC","28108",
"Smith Point Sports","631-289-3399","215 East Main Street","Patchouge","NY","11772",
"Softsource Inc-IL",,"504 W OLIVER ST.","MANSFIELD","IL","61854",
"Southtown Sporting Goods",,"4602 N College","Fayetteville","AR","72703",
"Sporting Supply",,"Brandon Plunkett","Harrisonvile","MO","64701",
"Sportsman's Choice",,"6925-C Maynardville PK","Black Oak","TN","37918",
"Sportsman's Den",,"201 N. Gamble Street","Shelby","OH","44875",
"Sportsman's Supply Inc.","636-629-1600","2219 Hitzert Ct","Fenton","MO","63026",
"Sportsmen's Unlimited",,"866 Allamakee St","Waukon","IA","52172",
"Spot Shooter Archery",,"3525 Grange Hall Road","Holly","MI","48442",
"SSA Sporting Goods",,"Nering Straat 2","Blankenberge Belgium",,"8370",
"Stalker Outdoors","865-742-0998","3832 Hwy 11 E","Lenoir City","TN","37772",
"Streiff Sporting Goods","218-386-2590","34480 550 Ave","Warroad","MN","56763",
"Strike Zone Fishing","904-641-2433","Rick Stinson","Jacksonville","FL","32246",
"SunRy's Archery and Outdoors","810-936-0066","1442 Torrey Road","Fenton","MI","48430",
"Sweeney Sports",,"1537 Imola Ave","Napa","CA","94559",
"Ten Zone Archery",,"Adam West","East Maitland",,"2323","Australia"
"The ""Out"" House",,"5500 Franklin Ave","Waco","TX","76710",
"The Archery Company Eng.",,"The Paddocks, Deepdale","Bedfordshire",,"SG19 2NH","England"
"The Archery Shop-Minster, OH","419-628-2174","55 N Hanover Street","Minster","OH","45865",
"The Arrow Shop",,"3400 Tuxedo Blvd, Suite E","Bartlesville","OK","74006",
"The Bow Zone-TX",,"5833 Treaschwig","Spring","TX","77373",
"The Great Outdoors",,"2455 Route 21 South","Ripley","WV","25271",
"The Nock Point","425-672-8080","22313 - 70th Ave West, ","Mountainlake Terrace","WA","98043",
"The Southern Sportsman",,"1724 Front Street","Meridian","MS","39301",
"The Spot Archery",,"3524 W Gettysburg","Fresno","CA","93722",
"The Sure Shot","256-329-0080","The Sure Shot","Lewiston","MT","59457",
"Tim's Paintball & Sporting Goods",,"10 East 4th South","Preston","ID","83263",
"TimberGhost Hunting & Fishing- Cumming",,"3455 Keith Bridge Rd.","Cummings","GA","30041",
"TIMBERWOLF TRADING POST",,"CLIFF ST. MARTIN","ROCHESTER","IN","46975",
"Traditions Archery",,"2199 E. Henrietta Rd","Rochester","NY","14623",
"Triangle Sports",,"140 Heber Springs Rd","Batesville","AR","72501",
"TURNERS OUTDOORSMAN",,"MICHELLE BELLAVER","RANCHO CUCAMONGA","CA","91730",
"Ultimate Outdoors-PA",,"2780 Route 286 Golden Mile Hwy","Pittsburgh","PA","15239",
"Ultra Products",,"PO Box 100","Fairfield","IL","62837",
"Van's Sporting Goods",,"777 Hwy 468","Brandon","MS","39042",
"Van Winkle's Sporting Goods",,"1901 Hewitt","Everett","WA","98201",
"Vanderbilts",,"3005 Enterprise Dr.","Salina","KS","67401",
"Viking Archery",,"41000 FM 3159","Canyon Lake","TX","78132",
"Warner - Jeff","907-229-1214","10141 Colville St.","Eagle River","AK","99577",
"Warsaw Archery-MO",,"Richard Hamby","Warsaw","MO","65355",
"West Houston Archery",,"11522 Katy Freeway","Houston","TX","77043",
"Whitney's Hunting Supply",,"2 Church Street","Granville","NY","12832",
"Wild Idea Archery","(cell) 417-224-0567","537 N C Hwy","Seymour","MO","65746",
"Wilson Outdoor, LLC",,"105 E 9th St","Rector","AR","72461",
"Wink's Sporting Goods",,"12122A Carol Lane","Princess Anne","MD","21853",
"Wolf's Den",,"R.R. #1","Utopia","ON","L0M 1T0","Canada"
"Woody's Sporting Goods","610-678-7807","35 Werner St.","Wernersville","PA","19565",
"Wyvern Creations","603-659-0575","235 North River Road","Lee","NH","03824",
"Young-Korey","270-799-7165","465 Raquelle Dr","Bowling Green","KY","42103",
