"name","phone","email","lat","lng","level"
"Prompt Parts GmbH / 3B-Bachofnerbogensport","+41 (52) 3841133","info@pfeil-bogen.ch","47.455123901","8.7784090042","0"
"Bogensport Lorcher","+49 (7159) 949778","matthes@bogensport-loercher.de","48.737659454","8.9753236771","0"
"Traxler Bogensport","+43 (166) 20168","info@bows.at","48.149219513","16.311037064","0"
"Archery Direct ","64 7 855 9369","","-37.7397995","175.22799683","4"
"Archery World","01539-558141","","54.16960144","-2.972110033","0"
"Archery Direct","040 890 700 40","","53.567699432","9.9045200348","0"
"Elzinga Archery","+31 (36) 7070776","info@elzingaarchery.com","52.392375946","5.2850008011","0"
"Urban Archery","+61 (3) 9434 7489","sales@urbanarchery.com","-37.69860077","145.11000061","0"
"The Bow Shop","0861 269 746","","-25.90979958","28.262300491","0"
"C. Knoebel/NK-Archery","+49 (7721) 4515","info@nk-archery.de","48.063541412","8.4972963333","0"
"Archery West","08 9459 0700","","-32.04510117","115.97499847","0"
"Gobel Bogensport","+49 (5381) 941651","info@gobel-bogensport.de","51.876678467","10.147760391","0"
"Canga Archery","1.16E+12","","-26.76049995","153.12600708","0"
"Roth Bogensport","+49 (7751) 8029248","info@roth-bogensport.de","47.614639282","8.2396202087","0"
"Still Bow","27219496047","","-33.8893013","18.634300232","0"
"Ravnjak D.O.O.","+386 (2620) 8687","ravnjak@amis.net","46.58921814","15.024601936","0"
"TOXON SPORT","0039(0)75-5003815","","43.089099884","12.373399734","0"
"Maximarqueria SA. de. CV","52 3316 58 4051","","20.643699646","-103.4000015","0"
"Archery Service Center","(+31) 0653151631","","51.481998444","6.0560898781","0"
"Center Shot Archery Services","+39 0172 190 8008","","44.543899536","7.7116498947","0"
"Arco & Frecce Superstore","39.937003","","45.528400421","9.0879497528","0"
"Multikonstrukt Kft.","+36 (96) 554009","info@pannonijasz.com","47.575473785","17.749324799","0"
"Bogensport Fuchs","+43 (361) 420838","fuchsmax@aon.at","47.52204895","14.361304283","0"
"Saurier Bogensport","02643-941388","","50.526901245","6.9921398163","0"
"Joe's Archery","07248-6462","","48.883701324","8.5058002472","0"
"Bogensport-Zentrum Chiemgau","08663-418149","","47.762901306","12.645299911","0"
"L'Usignolo sas ki Malvina Longhi","034-87552418","","45.584499359","9.2744503021","0"
"Archery BZ Srl - Unipersonale in liquidazione","0331-87662","","45.664600372","8.7747602463","0"
"JP Archery Co. Ltd","+81 (9) 053071310","yamaguchi@archery-shop.jp","35.702331543","139.69863892","0"
"JVD Distribution","31 73 518 6020","","51.699401855","5.185379982","0"
"Onok Okculuk","+90 (312) 4417743","okyay@onok.com.tr","39.925346375","32.844314575","0"
"Archery Addiction","02 6742 3564","archeryaddiction@bigpond.com","-30.99790001","150.24099731","3"
"Oz Hunting and Bows","0395709100","","-37.90853119","145.08557129","0"
"Big Kreek Outdoors","870-932-1615","","35.967300415","-90.84670258","0"
"Mike's Outdoors","850-478-1129","","30.522899628","-87.27400208","0"
"Southtown Sporting Goods","479-443-7148","","36.134899139","-94.14459991","0"
"Archery Headquarters","480-961-3100","","33.304901123","-111.9509964","0"
"Bull Basin Archery","928-526-1025","","35.211700439","-111.6100006","0"
"Predator's Archery","408-842-7733","","37.00630188","-121.5680008","5"
"The Bow Rack","530-243-5181","","40.544200897","-122.461998","0"
"Archery In the Wild","720-652-9100","","40.159801483","-105.0230026","2"
"Andover Archery Center","860-742-4279","","41.702098846","-72.36560059","0"
"Chuck's Gun and Pawn","478-922-9851","","32.619098663","-83.60569763","0"
"Scudder Archery","515-250-9909","","40.643901825","-93.80580139","0"
"Scheels All Sports - Des Moines","515-727-4065","","41.568401337","-93.80519867","0"
"Sportsmen's Unlimited","563-568-4955","","43.277999878","-91.4756012","2"
"SS Archery","208-941-9899","","43.58549881","-116.2300034","0"
"Buck Stop Archery","618-427-5264","buckstoparchery@yahoo.com","38.995876312","-88.95284271","3"
"On Target Archery","618-521-9169","","37.957099915","-89.79429626","0"
"TAZ Archery","815-337-0332","","42.295597076","-88.42995453","3"
"The Hunter's Shack","217-268-4774","","39.680801392","-88.37599945","0"
"Wolf Hollow Archery","309-274-9653","","40.878200531","-89.50610352","1"
"Bass and Bucks","260-569-1853","","40.752300262","-85.89559937","3"
"Trophy Book Archery LTD","780-962-6322","","53.539299011","-113.8860016","0"
"Lonesome Elk","812-466-2391","","39.593700409","-87.35099792","0"
"Red Deer Archery","403-343-1153","","52.272399902","-113.7689972","0"
"Drop-Tine Archery","620-226-3406","","37.091400146","-95.21880341","0"
"Smokey Valley Shooting Sports","785-227-4318","","38.513198853","-97.66680145","0"
"RNS Sports Distribution","","","0","0","1"
"Heights Archery","204-832-4421","","49.87620163","-97.24469757","0"
"Jefferson Archery","301-473-8495","","39.361598969","-77.53530121","0"
"Al & Bob's","616-245-9156","","42.907600403","-85.66570282","1"
"Al & Pete's","269-945-4417","","42.648601532","-85.28759766","0"
"Bear Foot Archery","810-630-8050","","43.00120163","-83.86100006","1"
"Jay's Sporting Goods","989-386-3475","","43.858299255","-84.76809692","1"
"Jay's Sporting Goods","989-705-1339","","44.988899231","-84.67449951","0"
"Archery Country","320-253-4786","","45.553367615","-94.2145462","3"
"Aarons Archery","573-762-2226","","37.865398407","-91.97229767","0"
"Oak Grove Archery","636-578-5000","","38.225200653","-91.15119934","2"
"The Archery Shack","573-893-5288","","38.58990097","-92.32569885","0"
"Buffalo Jump Archery","406-449-3111","","46.608699799","-112.0800018","0"
"Scheels All Sports - Bismark","701-255-7255","","46.797698975","-100.7850037","0"
"Scheels All Sports - Fargo","701-298-2918","","46.857498169","-96.86380005","0"
"Precision Archery","908-209-4484","","40.598201752","-74.94180298","0"
"Targeteers","201-843-7788","","40.890899658","-74.10019684","0"
"Scheels All Sports - Reno","775-331-2700","","39.530498505","-119.7220001","0"
"Creekwood Archery","585-392-2030","","43.276901245","-77.85649872","0"
"Island Wide Archery Pro Shop","516-932-4520","","40.766601562","-73.53859711","0"
"MoHawk Sporting Goods","518-853-2045","","42.954399109","-74.37840271","0"
"S & S Taxidermy - NY","716-592-2404","","42.49710083","-78.69129944","0"
"Traditions Archery - NY","585-486-4145","","43.073600769","-77.60800171","3"
"J & L Archery","567-674-4090","","40.46680069","-83.6710968","0"
"AMA Archery","541-273-5281","","42.198898315","-121.7020035","0"
"Broken Arrow Archery","503-654-8012","","45.441799164","-122.6399994","1"
"G & L Archery","724-847-3514","","40.731098175","-80.31040192","0"
"Higley's Archery","814-654-7939","","41.736198425","-79.76309967","1"
"Jabs Custom Arrows","215-679-4673","","40.4231987","-75.50189972","0"
"Lancaster Archery Supply","717-394-7229","","40.040798187","-76.2276001","0"
"Loyalhanna Arrows","724-539-1369","","40.322498322","-79.3640976","0"
"Red Lion Archery","717-244-1365","","39.901199341","-76.60410309","0"
"Swatara Creek Outfitters","717-867-4995","","40.322498322","-76.51110077","2"
"Anthony's Archery","803-425-5152","","34.388801575","-80.70269775","0"
"Dragon Flight Archery","403-637-0266","","51.545398712","-114.4909973","0"
"RCJ Archery","806-548-6863","","33.172000885","-102.2610016","0"
"The Sure Shot","256-329-0080","","32.946201324","-85.98570251","1"
"Top Pin Archery","541-549-4580","","44.296398163","-121.560997","0"
"Archery Outpost","918-938-6476","","36.096500397","-95.86859894","0"
"BK III Archery","262-895-0141","","42.82849884","-88.15529633","1"
"Strut N Rut Archery","410-885-5058","","39.60100174","-75.80090332","0"
"B - L Archery","608-943-8202","","42.968101501","-90.43340302","1"
"Hunt-N-Gear LLC","608-868-3913","","42.797401428","-88.91130066","0"
"The Minnow Bucket","715-258-2514","kensbait@charter.net","44.376399994","-89.18489838","0"
"Woodsedge Taxidermy & Archery","715-228-5451","","44.023399353","-89.66880035","1"
"Bear Country Sports","907-486-0812","","57.803600311","-152.3860016","0"
"Sod Archery","304-756-3896","","38.262699127","-81.8934021","6"
"Autumn Addiction Archery","330-772-0354","jwalters@autumnaddictionarchery.com","41.307701111","-80.74269867","6"
"Kleins Archery & Outdoor","607-844-3474","","42.498401642","-76.31310272","1"
"Avery Outdoors","901-454-2567","","35.143901825","-89.96920013","1"
"Arrows in the Square","608-526-2609","","43.988201141","-91.23049927","0"
"Mac Island Outdoors","402-879-1945","","40.022598267","-98.0667038","1"
"Dominion Outdoors","540-337-9218","","38.121799469","-78.96279907","1"
"Rednek Booda Outdoors","903-229-7750","","32.13130188","-96.2276001","0"
"Southern Shooters Inc.","706-882-6525","","32.98210144","-85.03070068","0"
"Traditions Archery - SC","843-283-6055","","34.035800934","-78.91010284","0"
"Precision Archery","320-796-4868","","45.232898712","-94.95159912","1"
"Hideaway Archery","417-358-1000","","37.165798187","-94.36779785","0"
"Raven Archery","902-678-2601","","45.109100342","-64.50650024","0"
"Bakers Archery Supply","717-896-8090","","40.434398651","-76.93379974","1"
"Premier Outdoors","330-695-2508","","40.694801331","-81.78910065","2"
"Archer's Addiction","605-543-6040","","43.642345428","-96.76800537","6"
"Bushmaster Archery","936-856-7609","","30.421699524","-95.4701004","0"
"South Nation Archery Supply","613-989-2943","","45.16350174","-75.39800262","0"
"The Bow Shop","519-746-8139","","43.506401062","-80.54070282","0"
"Jon's Sport Shop","920-233-5533","","44.055999756","-88.54260254","2"
"Southern Style Archery","706-676-7300","","34.256999969","-85.16470337","2"
"TMAO","865-579-7555","","35.869102478","-83.75094604","0"
"Weavers Archery","570-837-1418","","40.788700104","-77.0440979","1"
"Bill Pelegrino's Archery Hut","719-638-0554","","38.837398529","-104.7099991","0"
"Gagnons Sports","905-725-5798","","43.87720108","-78.87010193","0"
"North Pro Sports","306-249-1991","","52.121700287","-106.6449966","0"
"Erie Tracker Outfitters","905-834-9218","","42.891700745","-79.25360107","0"
"Little Sandy Archery","606-473-7795","","38.573101044","-82.8302002","0"
"Frank's Great Outdoors","989-697-5341","","43.773601532","-83.97489929","1"
"Bull Basin Archery - Tucson","520-747-3875","","32.202701569","-110.8759995","0"
"Sleepy Hallow Pro Shop","814-837-8831","","41.658901215","-78.77950287","1"
"Loretto's Archery","716-803-9096","","42.57559967","-78.90519714","0"
"Little Wolf Archery","715-445-3611","","44.63130188","-89.16259766","0"
"Northwoods Archery","715-524-8773","","44.774700165","-88.58409882","0"
"The Sports Shop","706-754-2328","","34.715099335","-83.57099915","0"
"Full Curl Archery","907-344-BOWS","","61.107601166","-149.8609924","2"
"Garden State Bow and Reel","973-697-3727","","41.090198517","-74.52110291","0"
"Extreme Archery","914-835-4474","","40.953399658","-73.72409821","0"
"Archery MD","717-445-0400","","40.191101074","-76.01789856","0"
"Moe's Bow & Archery Supply","780-808-9669","","54.266700745","-110.75","0"
"Trophy Hunters Supply","920-562-0099","","44.511863708","-88.32989502","2"
"Full Draw Pro Shop","217-440-5553","","40.086601257","-91.18599701","0"
"Donny Brooke Archery","250-575-3741","","49.90599823","-119.4670029","0"
"Prairie Archery Supply","306-774-5888","","50.268798828","-107.7969971","0"
"The Archery Shop","813-963-2222","","28.079000473","-82.45960236","0"
"Strictly Fishing & Archery","815-741-0900","","41.517101288","-88.21130371","2"
"Gun World & Sporting Good","812-738-0935","","38.202999115","-86.09580231","0"
"Glenfiddich Archery","705-789-3532","","45.282600403","-79.28479767","0"
"Bean Outdoors","336-564 2400","","35.963798523","-80.30819702","0"
"Calgary Archery Centre","403-255-6830","","51.012199402","-113.9649963","0"
"Bowed Up Archery","828-926-3244","","35.518299103","-83.0515976","0"
"Silent Outdoors","608-269-2600","silentoutdoors@gmail.com","43.937957764","-90.77319336","6"
"Killer Archery Supplies","417-389-5005","","36.8659935","-94.42738342","5"
"Captain Chuck's","231-843-4458","","43.982398987","-86.39849854","0"
"The Trophy Room","217-415-8928","","39.593700409","-89.58429718","0"
"Southern Trading Co.","229-248-0024","","30.9083004","-84.56780243","0"
"Whale-Tales Archery","262-965-2825","","43.014667511","-88.47440338","3"
"Fred's Sports","301-645-5694","fredsllc@verizon.net","38.632053375","-76.90589142","6"
"The Bow Shop","228-328-0503","","30.449100494","-89.08560181","0"
"TMAO","641-895-7173","","40.72600174","-92.87139893","0"
"West Coast Archery Shop","707-766-9971","","38.25466156","-122.6494598","0"
"B.B. Archery","816-763-2699","","38.965099335","-94.4878006","0"
"Done Right Archery","814-312-5971","","40.325698853","-78.48429871","0"
"Scheel's All Sports","406-656-9220","","45.764701843","-108.5759964","0"
"Jerry's Archery","209-941-4870","","37.956001282","-121.3010025","0"
"O'Briens Archery","606-928-3625","","38.4272995","-82.69740295","0"
"Spring Hill Rod & Gun","304-768-2090","","38.354499817","-81.73139954","0"
"Wabanaki Wilderness","207-853-0949","","44.966300964","-67.06719971","0"
"Simple Man's Archery","304-573-3600","","37.720901489","-81.14289856","0"
"Battlefords Bait & Tackle","306-937-2275","","52.738300323","-108.3150024","0"
"The Sportsmans Refuge","304-594-9126","","39.690200806","-79.82830048","0"
"Bills Outdoor Center","301-387-3474","","39.516799927","-79.32659912","0"
"Southern Oregon Archery","541-664-3310","","42.408100128","-122.961998","1"
"C & C Archery","520-378-3141","","31.477800369","-110.2529984","0"
"Scheels All Sports - Lincoln","402-420-9000","","40.741001129","-96.67690277","0"
"M & M Archery","607-478-8090","","42.186698914","-77.73590088","0"
"The Sports Center","601-638-4216","","32.310901642","-90.88549805","0"
"H. L.'s Sports Shop","918-426-1268","","34.919101715","-95.77200317","0"
"Buttermilk Creek Outfitters","336-436-0025","","36.183898926","-79.34889984","0"
"Barefoot Outdoors","919-989-0088","","35.501998901","-78.34519958","0"
"Better Outdoors","870-475-3337","","35.612201691","-90.33049774","0"
"Wilderness Archery & Taxidermy","360-724-3135","","48.584300995","-122.3610001","0"
"Scheels All Sports - Mankato","507-386-7767","","44.1731987","-93.95510101","0"
"The Sports Shak","507-893-3400","","43.768398285","-94.16570282","0"
"Sutton Archery & Taxidermy","570-925-2273","","41.259998322","-76.37979889","0"
"JC Archery","517-851-7407","","42.448299408","-84.15319824","0"
"Boss Pro Shops","704-784-4365","","35.35200119","-80.62030029","0"
"Legends of the Fall Outfitters","315-696-6766","","42.754299164","-76.12000275","4"
"Pistols and More","636-447-1400","","38.750701904","-90.56300354","0"
"Red River Marine","318-487-1274","","31.321199417","-92.45709991","0"
"Simon Peter Sport Company","973-786-5313","","41.007598877","-74.75990295","0"
"Triple X Outdoors","573-450-7213","","37.084999084","-89.65540314","2"
"Hat Archery and Hunting Supplies","403-526-8441","","50.039299011","-110.677002","0"
"The Bow Shop","435-623-0199","","39.705600739","-111.8359985","0"
"Archery Addictions Ltd","484-554-0073","","40.774501801","-75.60030365","0"
"Outdoor Supply","501-745-5729","","35.569698334","-92.45200348","0"
"Satern Archery","515-332-1240","","42.717300415","-94.19940186","0"
"Nichols Outdoors","205-664-3430","","33.274700165","-86.79799652","0"
"Scheels All Sports - Omaha","402-298-5666","","41.261901855","-96.18360138","0"
"World Class Taxidermy, Archery and Adventures","732-298-4149","","40.143070221","-74.3815155","0"
"Norths Sport Center","715-237-2317","","45.21049881","-91.5625","0"
"Lay's Archery","620-251-0040","","37.004501343","-95.75499725","0"
"Back Country Archery","435-640-8343","","40.640201569","-111.2799988","0"
"Full Draw Archery","801-996-8292","","40.598899841","-111.9059982","0"
"McCoy's Outdoors","850-526-2082","","30.770500183","-85.22709656","0"
"NC Hunter Supply","919-676-6799","","35.847999573","-78.59500122","0"
"Sand Mountain Outfitters","276-227-0486","","36.945903778","-81.10214996","6"
"Scheels All Sports - Great Falls","406-453-7666","","47.492599487","-111.2890015","0"
"Honey Creek Tackle","317-422-0102","","39.511798859","-86.15789795","0"
"Brookview Archery","309-462-5355","","40.792999268","-90.41249847","0"
"Richie Archery","304-674-0009","","38.797401428","-82.21829987","6"
"Back Country Bows","218-326-3006","","47.216598511","-93.47530365","0"
"Blue Collar Work Wear","716-375-2875","","42.083599091","-78.45729828","0"
"Brush Country Outdoors","361-437-6104","","28.008800507","-97.54550171","0"
"Alexanders Store","706-745-6450","","34.825199127","-83.87259674","0"
"Pistols Plus","573-348-5356","","38.168399811","-92.61119843","2"
"BHUNTN Archery","541-620-0364","","44.386901855","-118.9489975","0"
"Archery Connection","334-480-9997","","32.49420166","-85.03679657","2"
"McCoy Outdoor","251-473-1080","","30.704000473","-88.12750244","0"
"WC Outdoors","641-664-1069","","40.711601257","-92.50299835","0"
"Anneewakee Archery","252-227-2114","","35.754699707","-77.45819855","1"
"Cooper's Trading Inc","828-678-9929","","35.917301178","-82.3010025","0"
"Lewis and Clark Outdoors","276-646-3101","","36.805400848","-81.67379761","0"
"Jerry's Bait Shop","865-354-1225","","35.853401184","-84.70149994","0"
"Chesher's Outdoor Store","613-966-8080","","44.202800751","-77.39929962","0"
"Cascade Outdoors Inc","541-273-5281","","42.198101044","-121.6999969","0"
"Sneaky Outdoors","423-476-5607","","35.263900757","-84.9178009","0"
"B & G Pro Shop","304-589-7432","","37.269798279","-81.22229767","0"
"Midwest Archery","763-515-6366","","45.213298798","-93.62310028","0"
"Bownanza Bow Shop","903-668-2637","","32.46559906","-94.6207962","0"
"Glady Fork Archery","304-269-6292","","39.03850174","-80.52159882","0"
"Hoffman Archery","540-349-1631","","38.765651703","-77.72096252","0"
"Dead On Archery","208-922-9744","","43.605899811","-116.3690033","0"
"Heartland Outdoor","620-664-6103","","38.006999969","-97.94129944","0"
"Middle Mt Archery","304-636-5569","","38.925899506","-79.84670258","0"
"Everything Archery","808-342-7111","","21.284799576","-157.720993","0"
"Kris Kustom Archery","423-863-0943","","36.533000946","-82.39029694","0"
"Bucks and Bows Archery","724-443-5166","","40.621379852","-79.94359589","3"
"Headhunter Archery","636-528-5397","","38.972301483","-90.96199799","3"
"Bullzeye Archery","903-816-2925","","33.672000885","-96.82050323","0"
"Presley's Outdoors","309-697-1193","","40.645198822","-89.67639923","2"
"Williamson Gun and Archery","304-235-5169","","37.671798706","-82.27749634","0"
"Bowhunters Den","717-334-4377","","39.764701843","-77.23200226","0"
"Dakota Archery","605-665-8340","","42.89440155","-97.39749908","0"
"Tall Tines Archery","217-662-8570","","39.941799164","-87.64579773","0"
"St. Landry Lumber Co","337-942-2227","","30.535900116","-92.08779907","1"
"Archer's Edge","812-374-2488","","39.318599701","-85.84889984","0"
"Blue Ridge Backwoods","217-762-3123","","40.037200928","-88.5746994","0"
"Blood Trackers Archery","704-528-1311","","35.678100586","-80.90519714","0"
"Samples Custom Archery","502-321-3351","","38.211399078","-85.19930267","0"
"Wild Wheels Archery","715-927-1021","","44.950901031","-88.0401001","0"
"Mike's Bow Shop","319-986-5355","","40.868000031","-91.56159973","0"
"Amherst Arms Supply","434-292-1978","","37.498001099","-79.12519836","0"
"Coyote Creek","507-289-8303","","43.968799591","-92.46299744","0"
"AAA Outdoors","270-487-9912","","36.710098267","-85.68769836","0"
"Buck Stop Archery","217-774-4735","","39.406673431","-88.79151154","3"
"Full Rut Archery","303-646-6486","","39.35779953","-104.5889969","0"
"Rogers Hunting Fishing and Archery","417-682-6600","","37.497501373","-94.3003006","0"
"Foutz's Hunting and Fishing","573-335-0022","","37.305198669","-89.54810333","0"
"Sportsman Inc","803-366-3466","","34.993598938","-81.10050201","0"
"Southern Draw Archery","804-721-8326 / 804-731-30","","37.110298157","-77.52619934","0"
"Herndon Archery","270-271-9966","","36.733501434","-87.56600189","0"
"Hickory Ridge Archery","608-994-3050","","42.901699066","-90.94580078","0"
"Trophy Room Outfitters & Archery Supply","307-760-3060","","41.284599304","-105.5970001","0"
"Xtreme Outfitter","601-649-6334","info@xtremeoutfitters.net","31.720016479","-89.15114594","5"
"Frontier Archery and Camping Supplies","250-301-9808","","53.929599762","-122.8099976","0"
"Archer's Edge Archery Sales","336-696-2484","","36.222400665","-81.08070374","0"
"Red Zone Archery","603-890-9065","","43.429000854","-103.473999","0"
"Hilltop Archery","660-382-4600","","40.513301849","-93.52590179","0"
"Archery Country","320-253-4786","","46.325099945","-94.20700073","3"
"Grand Valley Sporting Goods","616-895-6592","","42.972698212","-85.94360352","0"
"Dunn's Sporting Goods","636-475-4240","","38.288700104","-90.39430237","0"
"Butch's Sports World","573-769-3536","","39.797100067","-91.51609802","0"
"Black Dog Archery","320-396-4967","","45.724811554","-93.17050171","6"
"Irby Street Sporting Goods","843-665-6462","","34.17029953","-79.76490021","0"
"Dunn's Sporting Goods","618-997-3626","","37.738300323","-88.95200348","0"
"Dunn's Sporting Goods","270-443-2144","","37.083999634","-88.65930176","0"
"Pro Line Archery Lanes","718-845-9280","","40.684398651","-73.84549713","0"
"Johnson's Great Outdoors","231-893-6688","","43.41619873","-86.35489655","0"
"Leadfeather Guns and Archery","863-875-8989","","28.007400513","-81.68589783","2"
"The Archery Place","705-752-2272","","46.221599579","-79.35780334","0"
"Twin Ponds Sports Shop","989-831-4890","","43.281600952","-85.07389832","0"
"Nature's Way Archery","262-483-6546","","43.44670105","-88.06079865","0"
"Minnesota Archery","320-693-2061","","45.127399445","-94.52850342","0"
"Foothills Gun and Pawn","864-847-1525","","34.616100311","-82.48419952","0"
"Rustic Rack","601-659-9944","","32.174198151","-88.82810211","0"
"Marbles Outlet Store","906-786-9390","","45.796199799","-87.07659912","0"
"Buck Wild Archery","304-945-8690","","38.380104065","-82.34765625","6"
"Big Oak Archery","402-699-6306","","41.098300934","-95.74939728","0"
"Cinnamon Creek Ranch","817-439-8998","","32.966899872","-97.2983017","0"
"Outback Archery","574-238-7070","","41.588298798","-85.76059723","0"
"Black Sheep Sporting Goods","208-667-7831","","47.71049881","-116.7910004","0"
"Rack Attack Archery","859-379-9301","","39.021198273","-84.59130096","0"
"Hoffman Archery","740-361-4172","","40.652301788","-82.91449738","0"
"C & C Archery","863-424-0222","","28.193399429","-81.64209747","2"
"Crazy Horse Archery & Tackle","270-789-3776","","37.304298401","-85.35520172","1"
"DC Sporting Goods","573-486-2826","","38.699798584","-91.43560028","0"
"Glen's Sport Shop LLC","715-884-6109","glenssportshopllc@yahoo.com","44.445556641","-90.22628784","0"
"Affinity Archery","319-364-4795","","41.991798401","-91.66149902","0"
"Curtsinger's Sports Center","859-236-7030","","37.621398926","-84.73370361","0"
"Dennis Outdoors","573-686-1744","","36.733200073","-90.43489838","0"
"MOR Archery","586-566-7991","","42.647499084","-83.03379822","0"
"Kruger Farms","877-631-0490","","45.585399628","-95.5490036","0"
"Todd's Sporting Goods","740-886-2666","","38.438201904","-82.38200378","0"
"Holliday Food & Sport","920-748-6262","","43.847099304","-88.8361969","1"
"Running Supply Store","605-342-9008","","44.09469986","-103.1999969","0"
"MS Outdoors","269-683-2248","","41.833198547","-86.18640137","0"
"Buttermilk Archery","336-285-6644","","36.035900116","-79.85790253","0"
"Scheels All Sports","217-726-6330","","39.742599487","-89.67169952","0"
"Palmetto State Armory","803-551-2680","","34.060199738","-81.13289642","1"
"Macks Sport Shop","870-673-6960","","34.534099579","-91.5585022","2"
"Fitz's Archery","315-668-1422","","43.300701141","-76.14559937","1"
"Sugar River Sports","608-424-6045","","42.880500793","-89.53379822","0"
"Xtreme Sound Security and More","601-735-6060","","31.673999786","-88.64499664","0"
"Lillie's Agway and Archery","315-865-8105","","43.241001129","-75.25569916","0"
"Van's Deer Processing","601-825-9087","","32.265098572","-89.98919678","0"
"Lewis and Clark Outdoors","276-646-3101","","36.805400848","-81.67379761","0"
"Jeff's Wholesale and Distributing","606-877-2442","","37.17029953","-84.12290192","0"
"Gary's Bow Shack","570-992-6830","","40.913101196","-75.29119873","0"
"Break Away Archery","307-257-4934","","44.291099548","-105.5019989","0"
"Bell's Outdoor Sports","859-235-0018","","38.395198822","-84.29669952","0"
"High Country Expeditions","970-815-9430","","40.486099243","-106.8450012","0"
"DJ's Oudoors","318-339-6838","","31.759399414","-91.84700012","0"
"Outlaw Sporting Goods","662-459-9054","","33.52640152","-90.21520233","0"
"Black River Archery","601-879-3800","","32.542800903","-90.31069946","0"
"Wilson Outdoors","870-783-2226","","36.258998871","-90.29270172","0"
"Hook Line and Sinker","479-271-8118","","36.420200348","-94.22090149","0"
"Robbie's","601-498-1192","","31.257047653","-89.76987457","6"
"Big Game Archery","604-859-2086","","49.039100647","-122.2630005","0"
"Lotus Gunworks of South Florida","772-232-6470","","27.247800827","-80.27349854","0"
"Earth Spirits Bow Shop","585-356-0802","","42.772701263","-78.16000366","5"
"Double Lung Archery","319-342-4550","","42.313598633","-92.19010162","0"
"Manchester Outdoors","931-224-0822","","35.481700897","-86.08860016","0"
"Ohio Outdoor Sports","330-456-1041","","40.766998291","-81.40139771","0"
"Northeast Outdoors","330-308-5600","","40.482299805","-81.46230316","0"
"Wicked Arrow","304-682-4451","wickedarrowarchery@gmail.com","37.668167114","-81.57316589","0"
"Southern Archery Outfitters","863-450-2914","","28.013700485","-81.91500092","0"
"R & S Antiques and Archery","918-791-1195","","36.556999207","-94.77059937","0"
"Horizon Trike & Marine","479-754-8484","","35.459300995","-93.41639709","0"
"Dakota Square Scheels","701-852-1010","","48.204200745","-101.310997","0"
"Ten Zone Archery","0412 679 082","sales@tenzonearchery.com.au","-32.75346756","151.59385681","3"
"Midwestern Shooter's Supply","920-269-4995","","43.584598541","-88.42880249","1"
"A-1 Archery Inc","715-386-1217","","44.959899902","-92.73190308","1"
"J & L Archery","304-239-2401","","37.800998688","-82.04019928","0"
"Sportsman's Choice","715-394-6077","","46.720798492","-92.08869934","2"
"Farmstead Archery","920-208-1026","","43.730201721","-87.73200226","0"
"Bowhunters Pro Shop","865-984-6111","bowhuntersproshop@att.net","35.75220871","-84.0038681","6"
"GODWINS ARCHERY","910-848-5200","GODWINSARCHERY@GMAIL.COM","35.028499603","-79.32091522","0"
"S & L Hobbies","815-830-2191","","41.274814606","-89.24455261","5"
"Ackerville Archery Outdoors","262-644-1010","","43.310501099","-88.25830078","0"
"Booger County Bow Shop","870-391-6948","","36.122501373","-93.80599976","0"
"Roger's Sporting Goods","816-781-9026","","39.268501282","-94.44219971","0"
"Westchester Archery","845-803-8360","","41.391918182","-73.72380829","6"
"12 Ring Archery","501-472-1097","","35.061199188","-92.34359741","0"
"Mike's Custom Archery","845-742-7029","","41.342700958","-74.40460205","0"
"Tri-County Outdoors","662-255-5059","","33.993000031","-88.62490082","1"
"Red Racks and Reels","573-785-6914","","36.748699188","-90.41059875","0"
"Bwana Archery","651-482-9866","","45.032699585","-93.09100342","0"
"4 Rivers 3D Archery","218-476-2718","","47.073600769","-92.99220276","0"
"Missouri Valley Archery","573-635-6932","sales@movalleymerc.com","38.582714081","-92.21605682","6"
"J & B Outdoors","816-273-0036","","39.740005493","-94.78775024","6"
"Broken Bow Archery","417-256-2697","","36.727798462","-91.89389801","1"
"Lucky Shot Archery","360-740-7464","","46.664848328","-122.9464569","6"
"C.R. Bucks","717-261-0991","","39.930500031","-77.71669769","2"
"J & D Outdoor Unlimited","361-592-3258","","27.510299683","-97.85620117","1"
"A+ Archery","225-261-7506","","30.51199913","-91.02960205","0"
"Brown's Archery Shop","518-393-2004","","42.820598602","-73.93049622","0"
"Social Circle","770-464-3354","","33.65512085","-83.7197113","1"
"Kenco Work & Play Outfitter","845-338-5021","","41.953125","-74.04917145","1"
"Barrett's Bowhunting","607-733-7773","barrettsbows@aol.com","42.129077911","-76.82144165","0"
"Grizzly Archery","509-575-5353","","46.619155884","-120.5572891","6"
"Deals Outdoors","208-435-4450","","46.375999451","-115.9380035","0"
"Mosquito Creek Outfitters","530-621-4500","mosquitocreekoutfitters@yahoo.com","38.731185913","-120.7904587","6"
"Extreme Performance Archery","406-600-4271","","45.702800751","-111.0279999","0"
"Wyoming Embroidery & Sporting Goods","307-875-5334","","41.51606369","-109.4726105","0"
"GRRR Gear Inc.","978-544-5444","mail@grrrgear.com","42.587646484","-72.29493713","0"
"R & R Sport Shop","413-323-6785","","42.290599823","-72.40740204","0"
"Kittery Trading Post","(888) 587-6246","","43.111572266","-70.73555756","5"
"Scott's Outdoor Sports","850-675-4566","","30.952699661","-87.15100098","0"
"Yetti Outfitters","863-763-1040","","27.250299454","-80.85189819","0"
"Blessed Archery","305-474-2988","","25.923000336","-80.28240204","0"
"Long Island Outdoorsman","516-678-5554","","40.657096863","-73.63703918","6"
"Outdoor Junction","931-520-7500","","36.137199402","-85.45149994","0"
"Steve's Gun and Archery","931-388-5157","","35.632598877","-86.9417038","0"
"Desert Ghost Archery LLC","928-231-4109","","33.968040466","-112.783287","0"
"Broken Arrow Archery","480-983-8683","","33.417701721","-111.5739975","0"
"Bardstown Mills Archery","502-348-3949","","37.832012177","-85.46091461","0"
"Geauga Bow LLC","440-632-1245","geaugabow@gmail.com","41.463027954","-81.08769989","6"
"Haddrells Point Tackle","843-881-3644","sales@haddrellspoint.com","32.794120789","-79.86183167","0"
"Hoot & Holler Archery","318-747-6501","hharchery@yahoo.com","32.516056061","-93.73297119","3"
"Illini Outdoor Inc.","217-446-7870","illinioutdoor@hotmail.com","40.082584381","-87.63505554","0"
"LC Bishop Archery","307-235-1320","","42.855895996","-106.3410339","0"
"L & R Hunting Supplies","409-550-8502","","30.906499863","-94.01200104","0"
"Acorns and Antlers","906-863-8026","","45.174598694","-87.61139679","0"
"Castle's Outdoor Center","423-658-0008","","35.188800812","-85.52580261","0"
"Energy Wave Bowstrings/Archery","615-426-3425","","36.203800201","-86.6108017","0"
"Archer's Paradise / Big Al's Archery","603-474-3575","","42.878501892","-70.86949921","0"
"Alvarado Archery","817-783-7300","","32.416000366","-97.19020081","0"
"Archers Pro Shop LLC","870-435-4343","archersproshop@yahoo.com","36.271179199","-92.53543854","0"
"Archery Best Edge","786-266-8413","","25.704105377","-80.40141296","0"
"Big Foot Pro Shop","435-789-4960","","40.48059845","-109.5279999","0"
"C & S Archery","936-588-4443","candsarchery@gmail.com","30.350700378","-95.58450317","3"
"Cutting Edge Sporting Goods","812-560-4208","","0","0","0"
"Dutchman Hunting Supplies","260-768-3283","","41.669200897","-85.58049774","0"
"Garretsons Sports Center","970-353-8068","","40.422931671","-104.7421646","6"
"Gibson Products of Kerrville Inc.","830-257-3511","gibsons@togllc.com","30.052820206","-99.1475296","6"
"Harris Archery","304-854-1457","","37.957000732","-81.45050049","0"
"LaGrande Ace Hardware","541-605-0152","","45.329372406","-118.0782547","6"
"Mena Pawn & Gun LLC","479-394-5200","","34.586101532","-94.21622467","0"
"Orange County Archery","402-658-2558","","30.120800018","-93.98809814","0"
"Overton's Archery Center","785-832-1654","","38.990898132","-95.23459625","0"
"Rednecks Racks & Reels","573-785-6914","","36.748699188","-90.41059875","0"
"Rednecks Racks & Reels","573-785-6914","","36.748699188","-90.41059875","0"
"Rocky Mountain Sports","307-686-0221","","44.249698639","-105.4830017","0"
"Tackle World","705-522-8889","","46.446098328","-80.98989868","0"
"TNT Archery","435-656-9110","","37.12002182","-113.5218201","6"
"Treetop Archery","770-836-8891","treetoparchery@yahoo.com","33.60067749","-85.09597778","5"
"Wasting Arrows","775-360-6556","info@wastingarrows.com","39.449401855","-119.7502823","0"
"Woods N Water","205-342-4868","","33.161762238","-87.51404572","6"
"LNL Archery","512-988-1164","","30.105100632","-97.30909729","0"
"Dan D Ridge Outfitters","850-871-4111","","30.152357101","-85.57575989","0"
"The Rack Shack at A. Ferrucci & Son","856-697-1663","","39.547969818","-74.94834137","6"
"Trophy Hunters Unlimited","812-630-5049","","39.095401764","-87.40730286","0"
"Niagara Outdoors","716-695-5873","","43.060501099","-78.90019989","0"
"Big Indian Archery","513-304-3845","","38.879901886","-84.19400024","0"
"D/D Archery","567-203-9703","","40.81452179","-82.34719086","0"
"Wilcox Bait & Tackle, Inc.","757-595-5537","","37.027801514","-76.45010376","0"
"BowHunters Supply Store","770-834-3044","","33.592700958","-85.03649902","0"
"Outdoorsman Direct","317-913-1713","","39.910762787","-86.04675293","0"
"A Sportsman's Attic, Inc","269-397-1419","","42.673942566","-85.65224457","0"
"Advanced Archery","661-805-3039","advancedarchery@outlook.com","35.360366821","-119.0854645","0"
"Surf & Turf Custom LLC","239-417-4640","surfandturfcustom@embarqmail.com","26.152425766","-81.79618073","0"
"Bryansteens Guns & Archery","540-562-4867","bryansteensguns@yahoo.com","37.318302155","-80.0032959","0"
"The Reel Shot","920-750-6143","","44.243965149","-88.37625122","5"
"Ross Outdoors LLC","602-386-1266","","33.450740814","-112.185463","1"
"Leaf River Sports LLC","601-582-9175","","31.368638992","-89.31264496","6"
"RC Indoor Archery Range","724-905-8053","rcindoorarcheryrange@yahoo.com","40.668651581","-79.01295471","1"
"Custom Gear","731-632-1780","","35.086387634","-88.4264679","1"
"Evergreen Archery & Outdoor","253-262-3450","","47.056434631","-122.2937546","5"
"The Bow Shed","618-780-9129","thebowshed@yahoo.com","38.614364624","-89.37745667","5"
"3G Archery","843-399-7299","","33.901603699","-78.7017746","6"
"Big Bob's Up North Outfitters","231-352-5360","","44.632511139","-86.23187256","0"
"Natures Prize","585-300-3430","naturesprize@gmail.com","42.998092651","-78.46867371","0"
"Sportsmen's Center","609-298-5300","","40.118736267","-74.73955536","6"
"Village Jewelry & Pawn","205-459-3348","","32.090877533","-88.2208786","2"
"NorthWest Sporting Goods & Supply LLC","860-738-8999","","41.918689728","-73.06259155","0"
"Rock Solid Archery Pro Shop","419-353-7625","","41.41009903","-83.65039825","6"
"Shooter's Sporting Goods","518-758-1488","","42.413200378","-73.67209625","1"
"Stimpson Archery","309-337-1924","","40.761955261","-91.02989197","6"
"Sweeney's Sports Inc.","707-255-5544","sweeneyssports@sbcgolbal.net","38.281494141","-122.2911987","6"
"Advantage Archery","308-325-3038","","40.606300354","-99.87930298","0"
"Water Bluff Arms","904-237-7655","","30.451799393","-81.58969879","0"
"Broadside Archery","402-750-2234","","42.034099579","-97.39890289","1"
"Drop Tine Archery","503-812-4865","","45.394798279","-123.8420029","1"
"Archery Outfitters","337-474-3930","","30.178312302","-93.21393585","0"
"Mountainboro Outfitters","256-538-1161","","34.101299286","-86.11289978","1"
"Full Draw Archery","920-973-1733","","44.268615723","-87.56920624","2"
"Little Jon's Archery World LLC","608-478-0880","","43.144500732","-89.04768372","2"
"Randy's Hunting Center","989-269-4807","","43.8022995","-82.99089813","1"
"Sportsmans Lodge","260-728-4868","sportsmanslodgeinc@embarqmail.com","40.824295044","-84.94100952","6"
"Wapiti Will's","503-569-6673","","43.021499634","-123.2919998","2"
"Rock Valley Archery","608-397-3830","","43.670101166","-91.01699829","2"
"Sportsman's Den","219-374-6990","sportsmansden@att.net","41.376724243","-87.45567322","6"
"Timberghost Hunting & Fishing","770-888-0920","","34.260601044","-84.07330322","3"
"Archerie des 2 Cote","418-690-0976","larcherie2cote@hotmail.fr","48.514701843","-71.05169678","0"
"Strictly Archery","908-689-5800","","40.739200592","-75.02739716","0"
"Hunter's Refuge Inc.","870-247-9000","","34.261829376","-92.08149719","6"
"DB Archery","402-246-4901","","41.540500641","-97.48680115","1"
"Downwind Archery","208-523-2237","","43.587799072","-111.8880005","0"
"Rockingham Cooperative","540-434-3856","","38.438201904","-78.8884964","2"
"Quick Draw Archery LLC","303-683-2944","quickdrawarchery@yahoo.com","39.541625977","-105.0384598","0"
"Quincy Bow Pro","217-222-2222","quincybowpro@yahoo.com","39.935199738","-91.36573029","3"
"Back 40 Archery Products","515-537-3552","","41.216499329","-93.15799713","0"
"Double G Archery","512-868-5530","bowhntnmn@aol.com","30.643800735","-97.62329865","1"
"BBR Outdoors","843-527-4298","bbroutdoors@gmail.com","33.373840332","-79.28881836","1"
"Tree Time Archery LLC","252-927-3300","treetimearchery@gmail.com","35.603672028","-77.13344574","6"
"Minutemen Survival Supply","209-223-1422","minutemenss@yahoo.com","38.353099823","-120.776001","0"
"Ringer Outdoors, LLC","574-223-9000","","41.148616791","-86.30405426","0"
"Lonesome Pine Archery","928-313-0162","","34.907310486","-110.1616974","0"
"Arizona Archery Club LLC","623-266-4647","","33.683200836","-112.086998","4"
"Kill Buck Archery LLC","765-362-3959","killbuckarcheryshop@gmail.com","40.050128937","-86.89141083","0"
"Bigg Dogg Firearms","206-390-7555","","47.494869232","-121.786171","0"
"Faulkners Dept. Store","506-784-3514","thegundealer@hotmail.com","45.594501495","-67.31159973","0"
"Jim's Bow and Gun, LLC","478-676-4444","","32.536300659","-83.07289886","0"
"AAA Outdoors","270-487-9912","","36.700000763","-85.69360352","0"
"Basque Fly Rods Inc.","506-525-9504","basqueflyrods@live.ca","46.364780426","-64.75430298","3"
"Jim's Bow and Gun, LLC","478-676-4444","Kj4IPY@gmail.com","32.536300659","-83.07289886","1"
"Bait Shack","563-582-9395","bait.shack@yahoo.com","42.518421173","-90.65698242","0"
"Springhill Outfitters LLC","919-351-0764","","35.549999237","-78.22218323","5"
"Butch's Guns Texas LLC","940-553-4867","butchsgunstx@att.net","34.157318115","-99.28449249","0"
"Full Draw Archery","605-645-6340","","44.471141815","-103.6413345","0"
"Sutherland Lumber","316-322-7788","","37.818401337","-96.89289856","5"
"Sutherland Lumber","417-588-8900","","37.660198212","-92.64949799","1"
"Sutherland Lumber","660-827-1314","","38.678100586","-93.25170135","1"
"Carolina Outdoors Unlimited LLC","828-724-4815","carolinaoutdoorsunlimited@gmail.com","35.690608978","-82.07305145","5"
"Dashiell's Showroom","757-539-7854","","36.684310913","-76.61253357","1"
"Deadwood Guns & Ammo Ltd.","937-550-0084","sales@deadwoodgunsandammo.com","39.579406738","-84.31835938","6"
"MudCreek Archery LLC","662-213-5758","info@mudcreekarchery.com","34.315544128","-88.68951416","0"
"France Archerie Lbfa","+33 (143) 440024","contact@francearcherie.com","48.840808868","2.3881833553","0"
"Woodbridge Arms Company","7328555887","","40.562301636","-74.30349731","0"
"The Minnow Bucket","715-258-2514","minnowbucketllc@charter.net","44.329959869","-89.15071106","6"
"J'n C Archery","806-282-9540","jncarchery13@gmail.com","35.13010025","-101.9000015","0"
"Hunters Choice Archery Shop","715-582-1010","hcbows2@yahoo.com","45.053684235","-87.73906708","0"
"Wolverine Guns & Tackle","403-347-0220","","52.213890076","-113.8141937","3"
"Archers Paradise","902-530-3309","scott@archersparadise.ca","44.383598328","-64.49970245","0"
"Infinity Outdoors","989-224-7163","pamela_peters01@yahoo.com","53.716201782","-6.350729942","0"
"Wolcott Guns","716-901-7807","wolcottgunsinc@hotmail.com","42.909801483","-78.71440125","0"
"Woodbridge Arms Company LLC","732-855-5887","woodbridgearmscompany@gmail.com","40.562301636","-74.29799652","5"
"Hard Nocks Archery","937-836-2248","hardnocksarchery@yahoo.com","39.872161865","-84.29672241","6"
"3D's Archery","931-478-0778","3dsarchery@att.net","35.371944427","-87.07504272","6"
"Culpepper Lumber Co.","706-863-7109","","33.546424866","-82.14923859","6"
"Hinton Archery","270-759-4600","hintonarchery@att.net","36.601737976","-88.30281067","6"
"Lake Sarah Archery","507-220-6395","info@lakesaraharchery.com","44.145122528","-95.77245331","0"
"Watson's Tackle House","519-371-0090","watsonstackle@hotmail.com","44.572998047","-80.94525909","0"
"Nice Archery","505-266-6494","robert@nicearchery.com","35.094398499","-106.586998","0"
"Archery Country","512-452-1222","","30.370100021","-97.72119904","0"
"Outback Archery of Joplin LLC","417-622-4582","","37.083286285","-94.50945282","6"
"A-Z Archery","270-774-7470","","37.280399323","-86.01110077","6"
"Wheeler's Feed & Outfitters","830-249-2656","","29.794664383","-98.73197174","6"
"Mitchell's Sports","580-480-1100","","34.637859344","-99.33364105","0"
"Country Boy Outfitters","910-640-1986","","34.30519104","-78.71627045","5"
"Chester County Outdoors","484-328-3354","chestercountyoutdoors@gmail.com","40.034698486","-75.57569885","0"
"Alexander Archery, Inc.","304-723-8029","","40.407100677","-80.58848572","5"
"Shay Creek Sports","715-748-2855","","45.154399872","-90.334198","0"
"Shay Creek Sports","715-298-5118","","44.890499115","-89.62190247","0"
"Big Shot Outdoor Gear","866-611-7468","sales@teambigshot.com","32.884685516","-117.1529388","3"
"SunRy's Archery & Outdoors","810-936-0066","","42.8125","-83.72463989","3"
"Panhandle Archery Outfitters","806-352-1515","panhandlearchery@suddenlink.net","35.1352005","-101.8949966","0"
"Heritage Outdoors","828-650-9977","heritageoutdoorsnc@yahoo.com","35.439853668","-82.50482941","0"
"Spurlow's Outdoor Outfitters","863-635-0240","","27.746099472","-81.53040314","5"
"Long Range Archery","616-399-3011","longrangearchery2@gmail.com","42.814899445","-86.09069824","0"
"Detty Outdoors","740-701-0051","j.detty@dettyoutdoors.com","39.33549881","-82.98500061","6"
"Broken Rack Archery","513-625-0148","Dustinburdine@yahoo.com","39.082298279","-84.21800232","6"
"Woods & Waters Outdoors","304-813-8085","woodsandwatersoutdoors@hotmail.com","39.380901337","-79.15229797","6"
"Custom Archery and Outdoors Inc.","715-399-9900","","46.724143982","-92.08383942","6"
"Backwoods Archery","423-289-1269","rob@backwoodsarchery.net","36.233501434","-83.24169922","6"
"S & D Archery Shop","618-318-7448","","38.075901031","-88.18640137","0"
"Ketchie Outdoors","704-279-8377","ketchieoutdoors@gmail.com","35.670970917","-80.47422791","5"
"Beikirch's Hunter Supply LLC","585-248-3434","","41.986255646","-77.313797","5"
"Shenandoah Sporting Goods Inc.","540-436-3510","shentaxi@shentel.net","38.954296112","-78.42810822","6"
"Sons of Grant Sporting Goods","706-278-5598","sonsofgrant@gmail.com","34.764915466","-84.95328522","6"
"Center Shot Archery","941-377-7902","centershotarchery@hotmail.com","27.326448441","-82.45843506","6"
"Bullseye Archery and Sporting","732-998-8795","bullseyearcheryllc@gmail.com","39.920608521","-74.15912628","3"
"Hunters Den","270-726-3676","huntden@logantele.com","36.884799957","-86.91960144","6"
"Bens Supercenter","810-346-2835","jmurray@benssupercenter.com","43.344100952","-83.08460236","6"
"B & B Pawn & Trading","325-673-3831","bowrifle@sbcglobal.net","32.447006226","-99.73796082","0"
"Pat's Sporting Goods Inc.","804-748-4165","patssportinggoods@yahoo.com","37.321311951","-77.40593719","6"
"Adirondack Archery LLC","518-293-1600","adirondackarchery@earthlink.net","44.64812088","-73.74783325","0"
"Archery World","360-693-7510","","45.626930237","-122.6400375","0"
"B & B Pawn & Trading","325-673-3831","bowrifle@sbcglobal.net","32.446998596","-99.73799896","6"
"Brisbane Archery Supplies","+61 447 144 045","sales@brisbanearcherysupplies.com.au","-27.46601486","153.10858154","4"
"Bullzeye Archery","585-657-7417","","42.883132935","-77.38745117","6"
"Colgard Outdoor Sports","276-679-1728","colgard1@comcast.net","36.933433533","-82.62904358","6"
"C-n-C Archery Pro Shop Inc.","608-678-2229","","43.620883942","-89.76316071","6"
"Dave's Archery","814-725-1232","","42.110969543","-79.85634613","6"
"Detty Outdoors LLC","740-701-0051","","39.33549881","-82.98500061","6"
"Eunice Archery Range & Gear LLC","337-466-3930","eunicearchery@outlook.com","30.495100021","-92.44869995","0"
"Everyday Hunter","985-839-7709","everydayhunter20@yahoo.com","30.846508026","-90.15328217","6"
"Grabow Outdoors","205-314-8997","","33.592899323","-86.80104065","6"
"Guns & Bows Inc.","517-625-7022","","42.871868134","-84.17170715","6"
"H & V Sporting Goods","276-963-2415","hvsportinggoods@verizon.net","37.092601776","-81.78320312","6"
"J's Archery Pro Shop","715-627-2697","jsarchery@hotmail.com","45.165592194","-89.14745331","6"
"Lil Nut Archery","904-291-8009","lilnutarchery@gmail.com","30.065666199","-81.86763","5"
"LSE Archery","601-833-5431","","31.612100601","-90.44450378","6"
"Lucas Archery","660-263-5188","","39.434768677","-92.45189667","6"
"Nocked & Loaded","512-556-4700","","31.066244125","-98.18032074","6"
"Safford Tire & Hardware","334-573-2410","","32.288105011","-87.37041473","6"
"The Deer Camp","352-490-4868","thedeercamp1@att.net","29.475927353","-82.85993195","3"
"XXX Archery","503-556-1322","","46.088844299","-122.9355545","6"
"Dave's Archery","814-725-1232","djwbuckmaster@viriron.net","42.111000061","-79.85630035","6"
"Parker's Archery","812-829-1144","parkersarcheryshop@gmail.com","39.281772614","-86.71877289","6"
"Maddox Feed and Seed","706-367-9207","","34.02399826","-83.67919922","0"
"Drop Tine Archery","336-940-3250","robert@droptinearchery.com","36.00120163","-80.44380188","3"
"Gable Sporting Goods","770-942-5397","","33.750499725","-84.73629761","3"
"Lyndon's Riverview Sports, INC","828-632-7889","","36.006698608","-81.19039917","6"
"Glenns Archery & Tackle","330-222-2425","garchery1@aol.com","40.792720795","-80.86453247","6"
"4M Archery","806-898-0144","","35.234973907","-100.5991211","0"
"Macrotech","410-789-7777","","39.213573456","-76.61525726","6"
"Ferari's Archery","315-493-2295","mferari@twcny.rr.com","44.001598358","-75.57389832","6"
"Hales True Value Hardware Inc.","269-782-3426","","41.973697662","-86.13446808","6"
"Goldstar Outdoors II","616-374-8001","","42.811107635","-85.074646","6"
"Van's Sporting Goods","256-775-4031","","34.122806549","-86.89042664","0"
"Flying Arrow Sports","845-228-5330","","41.411808014","-73.6601944","5"
"Flying Arrow Sports","518-477-2697","","42.604724884","-73.71640015","5"
"Flying Arrow Sports","845-462-0100","","41.630710602","-73.8687973","0"
"Kevin's Custom Arrows","802-685-3252","","43.947231293","-72.30950928","6"
"Rhino Archery, Fishing & Hunting","507-298-3123","info@rhinosarchery.com","44.48802948","-92.90882111","6"
"Hidden Creek Outdoors","870-368-4361","","36.05890274","-91.88577271","6"
"3J's Archery","301-472-1933","","38.401199341","-76.69819641","6"
"Glenns Archery & Tackle","330-538-2425","","41.134155273","-80.97026062","6"
"Crooked Creek Archery","304-375-2434","crookedcreekarchery@yahoo.com","39.400630951","-81.44817352","6"
"Bac Archery","352-465-7200","bacarchery@bellsouth.net","29.187374115","-82.55397034","6"
"Fremont Archery Range","260-527-4589","","41.724533081","-84.93393707","6"
"Screaming Eagle Archery of Alaska LLC","907-376-2699","searcheryak@gmail.com","61.577590942","-149.4467316","6"
"Walnut Creek Outdoors","765-667-5019","sales@walnutcreekoutdoors.com","40.489879608","-85.5958252","6"
"Buggs Island Archery","434-738-3350","","36.600067139","-78.55227661","0"
"Autumn Sky Outfitters","410-836-3660","info@autumnsky.com","39.632385254","-76.27351379","6"
"Cypress Creek Outdoors","731-287-1470","","36.02633667","-89.41088104","6"
"Wilsons Archery","270-705-8391","","36.649139404","-88.69780731","6"
"Outrageous Outdoors","618-639-4867","outrageousoutdoors1@gmail.com","39.111553192","-90.32157135","5"
"The Archers Edge","412-489-5670","info@thearchersedge.com","40.442577362","-80.18613434","5"
"Save Big Outdoors","866-602-5045","","33.750984192","-85.68833923","6"
"Sagona's Hardware","985-369-3551","","29.998699188","-91.05619812","6"
"Triple C Archery","405-420-9500","triplecarcherymail@yahoo.com","35.089801788","-97.33979797","6"
"Hadley's Archery Center","330-882-6060","","40.950382233","-81.56869507","6"
"Oklahoma Archery","405-636-1415","","35.383144379","-97.49874115","3"
"On Target Archery LLC","606-763-9461","","38.493057251","-83.77975464","6"
"Over Drawn Archery","715-223-2572","","44.730430603","-90.49604797","6"
"BowDoctor Archery","618-240-1561","","38.477108002","-87.82683563","0"
"Obsession Archery Inc.","815-877-1212","sales@obsessionarchery.com","42.383304596","-89.01950836","0"
"Terrys Archery Plus","252-638-2349","","35.260883331","-76.98436737","0"
"The Great Outdoors","704-445-8848","","35.38709259","-81.36927795","6"
"Yotes Archery Den","815-947-1016","","42.347866058","-90.00679016","0"
"City Boy Archery","660-646-8790","cityboyarchery@hotmail.com","39.84381485","-93.6342392","0"
"East Texas Hardware Ltd.","903-984-2036","easttexashardware@nwcmail.net","32.391456604","-94.8670578","0"
"LA Thrift Store","251-597-4158","","30.34592247","-87.68328094","6"
"Quality Resharp & Archery","417-498-2310","","36.990600586","-93.79605103","6"
"Archery Outfitters","870-779-9459","","33.429645538","-94.03540802","6"
"Hole in the Hide","662-801-2082","","34.379291534","-89.51076508","0"
"Mile High Archery","928-632-5004","milehigharchery@gmail.com","34.585319519","-112.3133774","0"
"Adams Archery","734-461-0266","adamsarchery@adamsarchery.com","42.109874725","-83.60436249","6"
"Archers Den","580-490-9979","archersden@sbcglobal.net","34.178012848","-97.1354599","6"
"Robby's Sales","(336)786-8017","","36.502815247","-80.6091156","5"
"Norris Merchandise","704-482-8464","archery@norrismerchandise.com","35.242645264","-81.56561279","6"
"Reeves Hardware Co","706-782-4253","","34.873996735","-83.40249634","6"
"Bubs Archery and Hunting Supplies","814-523-8123","bubsarchery@gmail.com","40.633892059","-78.64893341","0"
"The Archery Shop","419-628-2174","archeronhanover@live.ca","40.394321442","-84.38093567","6"
"Matt Hagen Outdoors","540-838-2882","","37.131793976","-80.57644653","3"
"Summit Archery","636-742-2531","","38.505702972","-90.81489563","6"
"Wolfpack Outdoors LLC","502-321-0496","wolfpackoutdoorsllc@gmail.com","38.103549957","-85.04658508","6"
"WW Archery Supplies","423-383-1382","","36.573154449","-82.3449173","0"
"Anderson Outdoors LLC","608-647-6300","andersonoutdoors@yahoo.com","43.335514069","-90.38486481","6"
"Bucks & Jakes","855-444-2825","","38.04832077","-87.31365967","5"
"Tangling with Outdoors","812-866-2861","","38.707969666","-85.55338287","6"
"Impact Archery","559-325-2320","impactarcheryinc@att.net","36.811840057","-119.6992569","5"
"Impact Archery","702-701-7766","","36.076400757","-115.1814346","5"
"Broadhead Barn LLC","903-784-6059","","33.658512115","-95.56226349","6"
"Fredericton Outfitters","506-450-4044","","45.980239868","-66.59300232","6"
"Indian River Sportsman","772-778-4844","","27.712884903","-80.41905212","5"
"Archery World Ltd.","989-672-4544","","43.488899231","-83.39710236","0"
"Travis Archery","845-443-3068","","41.820175171","-74.61585999","6"
"Top of Utah Archery","435-753-9610","","41.746299744","-111.8349991","6"
"Saugeen Shafts","705-749-1533","","44.290798187","-78.29360199","6"
"Branson Archery","417-334-3207","bransonarchery@gmail.com","36.609542847","-93.22974396","6"
"David's Outdoors","817-594-0821","","32.759960175","-97.82249451","6"
"TD's Rivers Edge Sports","815-499-5800","","41.838920593","-89.47954559","6"
"Anchor Point Archery","814-688-2231","","41.95533371","-79.13481903","0"
"Appalachian Archery","606-278-9214","","36.925987244","-84.71974182","0"
"Jo-Brooks Outdoors","284-727-3552","","49.835487366","-99.96998596","5"
"Quints Hardware","251-679-1300","","30.803300858","-88.11170197","0"
"Mountain Outdoors Archery","606-573-6260","mountainoutdoors@bellsouth.net","36.864200592","-83.31659698","0"
"Norris Live Bait Inc.","613-273-6462","info@norrisfishnhunt.com","44.664779663","-76.38568115","6"
"Pronature Edmunston","506-735-8292","","47.391483307","-68.34329987","3"
"R&L Archery Inc.","802-479-9151","","44.204498291","-72.51390076","6"
"Straightline Outdoor Sports","970-879-7568","","40.486316681","-106.8342361","6"
"Tepee Archery","978-635-0550","","42.522499084","-71.40399933","5"
"The Bow Shop","304-622-8440","","39.278636932","-80.43265533","6"
"Xpert Archery","505-325-5544","xpertarchery@msn.com","36.773868561","-108.133522","6"
"Copperhead Gun & Archery LLC","606-285-3454","","37.553318024","-82.75128174","3"
"Darkside Archery LLC","620-334-4543","","37.962394714","-100.8156967","0"
"Don's Store","406-538-9408","guns@dons-store.com","47.066040039","-109.4248123","6"
"Pro Nature Sports","819-362-8383","pronaturesports@bellnet.ca","46.232246399","-71.70526886","0"
"Live Oak Archery","979-260-9831","liveoakarchery@yahoo.com","30.63520813","-96.35481262","0"
"Shooter's Showcase","724-530-2226","","41.033679962","-80.19056702","6"
"CPS Archery","814-427-5230","","41.008296967","-78.83851624","6"
"Hunter's Landing","585-343-1474","","43.009498596","-78.20941162","6"
"King's Archery Outfitters, Inc.","502-499-6543","kingsarchery@gmail.com","38.179222107","-85.62334442","6"
"SH Archery","724-487-4974","","40.936309814","-79.75782776","0"
"Army Navy Outdoor Center","770-389-3350","","33.560161591","-84.2599411","3"
"Sportsman's Elite LLC","915-587-4867","","31.829063416","-106.5712662","6"
"Elrod Mountain Survival & Archery","812-704-2170","","38.546211243","-85.88935852","0"
"Neshoba Sports Archery","501-887-9055","neshoba@arkansas.net","35.541461945","-91.96788788","6"
"Spirit Quest Archery","406-756-5455","spiritquestarcheryinc@gmail.com","48.140129089","-114.2820663","6"
"Custom Archery Center Inc.","256-650-6103","","34.618247986","-86.56704712","0"
"Woods & Waters Outdoors","304-813-8085","woodsandwatersoutdoors@hotmail.com","39.380931854","-79.15225983","6"
"Gunnison Sports Outlet","970-641-1845","","38.544036865","-106.9284668","6"
"Bergey Jewelry & Archery","920-563-9229","","42.926570892","-88.83667755","0"
"El Dorado Pawn Inc.","870-863-7544","","33.20741272","-92.66278839","0"
"Buck Bass N Beyond LLC","843-524-2825","buckbassbeyond@aol.com","32.44260788","-80.69251251","0"
"Treeline Archery","307-389-8458","treelinearchery@gmail.com","41.613037109","-109.2343292","0"
"Legacy Outdoors","770-334-2704","legacyoutdoors@hotmail.com","34.166042328","-84.79561615","5"
"Warsaw Archery LLC","907-351-4649","","38.243080139","-93.38187408","0"
"Nice Archery","505-266-6494","","35.094467163","-106.5868454","0"
"Archer's Paradise; Big Al's","603-474-3575","","42.87802887","-70.87015533","3"
"Adventures Archery","863-664-8700","adventuresarchery@gmail.com","27.92839241","-82.34968567","3"
"Leaves & Limbs","902-735-3800","leavesandlimbs@leavesandlimbs.ca","45.604682922","-61.94745255","5"
"Faith Armory","951-699-7500","","33.519779205","-117.1675797","0"
"Bowhunter Pro Shop","251-675-1000","bowhunterproshop@comcast.net","30.795291901","-88.07563782","0"
"Weber's Top Shot Archery","815-405-0255","","41.511901855","-87.95259857","0"
"Sizemore Backwoods Outdoors","229-438-1395","","31.666629791","-84.17288971","5"
"Tent City Outfitters","905-660-6885","","43.787075043","-79.47353363","5"
"Drop Tine Archery","503-812-4865","archerydroptine@gmail.com","45.394786835","-123.8422775","0"
"Satilla River Outdoors","912-383-0055","satillariveroutdoors@gmail.com","31.509904861","-82.84941101","5"
"Bowhunters Plus","518-843-5500","info@bowhuntersplus.com","43.001659393","-74.19029999","0"
"Ramakkos Tackle World Ltd.","705-522-8889","","46.449752808","-80.99245453","6"
"Outback Archery","574-238-7070","outbackarchery@gmail.com","41.72926712","-85.65847015","6"
"Smithfield Archery","817-759-2220","","32.811424255","-97.2906723","0"
"Bad Boy Bait, Tackle & Archery","440-967-2033","badboytackle@aol.com","41.424980164","-82.34255219","6"
"One Source Outfitters","(219)476-4222","","41.550540924","-87.0905838","6"
"Middle Creek Archery","304-229-7064","","39.373485565","-78.04000854","0"
"Hunters Edge Archery","920-465-9922","","44.470947266","-87.98908234","6"
"DNW Outdoors","870-972-5827","","35.806121826","-90.68856049","5"
"S & S Taxidermy & Archery Shop - NH","603-542-4973","","43.350299835","-72.3608017","6"
"Girt's Archery and Outfitters","765-644-7113","","40.101642609","-85.67776489","0"
"Buckhorn Archers LLC","580-889-1700","","34.321498871","-96.12799835","0"
"Threadz Custom Bowstrings Inc","912-276-4212","","37.235862732","-87.85245514","6"
"Arrowhead Archery","813-621-4279","","27.998638153","-82.31911469","0"
"Sportsmen's Xchange","920-835-4800","sportsmenxchange@gmail.com","44.854301453","-88.04740143","6"
"Four Seasons Archery Pro Shop","315-834-6904","fourseasonsarcheryproshop@yahoo.com","43.027469635","-76.51127625","0"
"Midwest Custom Bow Strings","402-932-3033 ","","41.308288574","-95.95565796","6"
"Nichols Store","803-328-9792","","34.858161926","-81.01737976","5"
"H & H Gun Range","405-947-3888","","35.460861206","-97.59515381","5"
"Voges Archery Accessories","+61 (405) 696521","geoffvoges@hotmail.com","-24.87519073","152.38424683","0"
"BGB Gerald Bernhuber","+43 (664) 2533452","gerald.bernhuber@gmx.at","47.063919067","16.050373077","0"
"Bogenshop Bad Zell","+43 (660) 3733388","bogenshop@gmx.at","48.342456818","14.698144913","0"
"Groep Coboise","+32 (11) 284903","info@sergesport.be","50.878410339","5.3164253235","0"
"Danage Scandinavia APS","+45 (74) 442636","henning@danage.dk","54.893169403","9.6586837769","0"
"Baldur's Archery","+45 (97) 183356","info@baldurs-archery.dk","55.945259094","9.1182718277","0"
"Falco Tuh Estonian Archery/Crossbow","+372 (4) 426520","email@falco.ee","58.400295258","24.50198555","0"
"FATarchery","+358 (50) 3581805","sami@fatarchery.net","61.135448456","28.107810974","0"
"Sherwood Shop Finland","+358 (91) 356508","esko.salminen@sherwoodshop.fi","60.173324585","24.94102478","0"
"Hunter's Friend Europe Oy","+350 (45) 2086292","dana@huntersfriend.eu","62.760787964","28.029396057","0"
"Erhart Sports Et Loisers","+33 (389) 063030","info@erhart-sports.com","47.72964859","7.3190279007","0"
"Frere-Loup","+33 (553) 206747","info@frereloup.com","44.674480438","0.1096614003","0"
"Heracles Archerie","+33 (556) 651885","heraclesarcherie@orange.fr","44.497119904","-0.139895305","0"
"Bogenwelt","+49 (7121) 677220","info@bogenwelt.de","48.531890869","9.1396961212","0"
"Marstall-Bogensportausrust","+49 (4102) 59343","service@marstall-bogensport.de","53.670719147","10.241149902","0"
"BSW Handels GmbH","+49 (3837) 276884","kontakt@bogensportwelt.de","53.853321075","13.673879623","0"
"Compoundladen.de","+49 (163) 7722072","christianheinke@t-online.de","47.92250824","11.453199387","0"
"Perfect Archery Distribution GmbH","+49 (5619) 532595","perfect.archery@t-online.de","51.282489777","9.4310998917","0"
"Archery Direct","+49 (4089) 070040","info@archerydirect.de","53.608390808","9.8453836441","0"
"Bogensport Luckner","+49 (17) 11965879","mluckner76@googlemail.com","49.186161041","13.052689552","0"
"Wicasus Bogenshop","+49 (361) 54154470","jenswindrich@wicasus.de","50.986858368","11.038993835","0"
"Bogensport Platzhirsch","+49 (170) 7207689","info@bogensportpark-hallaich.de","47.764270782","12.642180443","0"
"J. Mikala/Joe's Archery","+49 (7248) 6462","joes-archery@web.de","48.883720398","8.5057964325","0"
"Bogenladen-Leipzig.De / Mike Ott","+49 (1777) 384006","mike.ott@bogenladen-leipzig.de","51.294651031","12.398825645","0"
"AC Bogensport","+49 (151) 14978603","info@ac-arts.de","49.441989899","7.5591697693","0"
"Asbach-Bogensport","+49 (176) 23239782","info@asbach-bogensport.de","50.220413208","8.9115419388","0"
"Wells Bogensport","+49 (1718) 383810","wells-bogensport@t-online.de","50.282230377","6.7076897621","0"
"HK-Bogensport","+49 (6201) 7662","info@hk-bogensport.de","49.609848022","8.641503334","0"
"Archery Supplies Ireland Limited","+353 (872) 406697","info@archeryshop.ie","53.271080017","-6.337844372","0"
"Top Archery di Origgi Roberto","+39 (331) 876692","info@toparchery.eu","45.661518097","8.7735805511","0"
"Sport Arco and Frecce SRL","+39 (293) 70030","info@arcoefrecce.it","45.743175507","8.778169632","0"
"Arco Sport Spigarelli SRL","+39 (62) 148351","info@arcosportspigarelli.com","41.892665863","12.543309212","0"
"Archery Service Center","+31 (6) 53151631","johan@archeryservicecenter.nl","51.481987","6.0560855865","0"
"Hendriks Handboogsport","+31 (40) 2557458","info@hendrikshandboogsport.nl","51.429382324","5.4248027802","0"
"Midt - Norsk Buesport (Eva)","+47 (90) 9752515","buesport@gmail.com","63.201126099","8.023648262","0"
"C&D Special Group S.R.L.","+40 (744) 651213","cdgroup-office@archeryshop.ro","44.48197937","26.098045349","0"
"St. Petersburg Archery Center Ltd.","+7 (812) 7165855","spb.archerycenter@gmail.com","59.977851868","30.340179443","0"
"Arco y Luna S.C.","+34 (6) 57186732","arcoyluna@hotmail.es","39.41676712","-0.395559311","0"
"Bagskyttespecialisten AB Bagar&Pilar","+46 (709) 461250","ulrika@bagaropilar.se","59.32251358","18.072616577","0"
"Merlin Archery Ltd","+44 (150) 9233555","info@merlin-bows.co.uk","52.7681427","-1.19820261","0"
"Bow Sports Archery Centre - N. Aston","+44 (190) 2 791891","sales@bowsports.com","52.586971283","-2.128819942","0"
"D.G. Quicks, Archery Spec.","+44 (239) 2254114","quicks@quicksarchery.co.uk","50.878391266","-1.03143549","0"
"Luksport - Adam Pazdyka","+48 (604) 291680","info@luksport.pl","52.274261475","20.980400085","0"
"Wilderness Archery","916-630-8700","","38.794647217","-121.2334518","6"
"Willow River Outdoors","715-497-9142","","45.178901672","-92.39710236","6"
"Archer's Spot & Pro Shop, Inc","812-384-8000","archerspot@wispaninternet.com","39.041656494","-86.84603119","6"
"Wapsi Valley Trading Company","319-480-8661","","42.099494934","-91.25968933","6"
"Jay's Bait & Tackle","304-538-6729","smith4bows@frontiernet.net","38.99609375","-79.00991058","6"
"Vance Outdoors - Columbus","614-471-7000","","40.044563293","-82.95896149","5"
"Vance Outdoors - Hebron","740-928-3474","","39.959907532","-82.47730255","5"
"Woodbury Outfitters - Coshocton","740-623-2227","","40.263401031","-81.86964417","3"
"Woodbury Outfitters - Jeffersonville","740-426-6559","","39.653209686","-83.53559113","3"
"Woodbury Outfitters - St Clairsville","740-526-0550","","40.07409668","-80.92722321","3"
"Borkholder Archery","574-773-0306","","41.436069489","-85.88645172","6"
"The Archery Zone","814-269-9663","","40.28212738","-78.86486053","6"
"Albrecht Taxidermy & Archery Pro Shop","608-897-2313","","42.608268738","-89.37722778","0"
"Gene's Sport Shop","218-346-3355","genessportshop@yahoo.com","46.593883514","-95.57226562","0"
"Chuck's Archery","724-206-0662","bowdr.chuck@gmail.com","40.193000793","-80.28819275","6"
"Hunter's Landing","585-343-1474","hunterslanding@hotmail.com","43.009498596","-78.20941162","6"
"Craft & Shaft Inc.","607-776-4370","","42.346580505","-77.44516754","6"
"Glacial Lakes Archery","507-530-8712","","44.583686829","-97.2123642","0"
"After Hours Archery LLC","641-676-4665","","41.296401978","-92.64742279","6"
"Crossroad Outfitters","276-521-9148","","36.804824829","-81.67427063","6"
"High Desert Archery","575-527-2697","","32.298919678","-106.8077316","6"
"D & R Enterprises Archery Pro Shop","937-964-1288","","40.033531189","-83.92137909","0"
"Salt River Outdoors LLC","573-588-4868","","39.693927765","-92.04295349","0"
"Triggers & Bows","519-449-1001","triggersandbows@bellnet.ca","43.106716156","-80.40682983","5"
"Archery Outfitters International","361-993-4868","","27.689058304","-97.33336639","6"
"Bebout Archery","740-559-2308","","39.552238464","-81.76334381","6"
"Queen's Archery","718-461-1756","","40.76140976","-73.79555511","6"
"Stephen's Archery","478-934-7865","stephens.archery@yahoo.com","32.42489624","-83.22424316","6"
"Whitney's Hunting Supply","518-642-9570","whitneyshunts@hotmail.com","43.407333374","-73.25951385","6"
"Abbey Archery - Brisbane","+61 7 3279 6400","brisbane@abbeyarcherycom.au","-27.56738091","152.93087769","4"
"Abbey Archery - Sydney","+61 2 8850 6400","enquiries@abbeyarchery.com.au","-33.73112869","150.97850037","4"
"La Sal Mountain Outfitters","435-259-1606","lmtoutfitters@frontiernet.net","38.528072357","-109.5013885","6"
"Nock \"ER\" Up Archery","419-707-2404","nockeruparchery@yahoo.com","41.547153473","-83.18289185","0"
"Superior Archery","406-245-0087","","45.804298401","-108.4430008","5"
"Inside Out Archery","231-760-4795","insideoutarchery@gmail.com","43.154354095","-86.21833038","0"
"CCR Sports","802-748-4378","","44.421779633","-72.00642395","6"
"TSM Archery","601-415-3655","","33.743686676","-90.72179413","6"
"Island View Archery","308-383-4255","","40.870056152","-98.27912903","0"
"OP Fishing & Hunting","709-747-3734","","47.518486023","-52.8379097","5"
"The Gun Rack","517-227-5710","","42.029899597","-85.00099945","0"
"JB Archery","865-617-7927","JB_Archery@yahoo.com","36.298999786","-84.22329712","6"
"Sportsman's Headquarters","270-683-4023","","37.768169403","-87.13388824","6"
"All Tens Archery","561-203-6633","","26.682479858","-80.14935303","0"
"Brannen Outfitters","478-224-1616","","32.435405731","-83.75820923","5"
"R & B Archery Supply","574-371-6074","","40.455089569","-86.15114594","0"
"Bone Collector, LLC","815-587-8700","","41.383003235","-88.8299408","6"
"The Bow Shop","607-783-9460","","42.484870911","-75.17391968","6"
"Blade & Barrel","318-992-6891","","31.676647186","-92.11328125","6"
"Straight 6 Archery","406-531-0874","straight6@gmail.com","46.860427856","-114.038681","6"
"Young's Archery","505-870-5557","youngsarchery@yahoo.com","39.124233246","-108.6071854","0"
"Deep South Archery","239-872-7135","","26.688337326","-81.96627045","0"
"Hunters Headquarters II, Inc.","864-223-1911","","34.215824127","-82.20437622","6"
"CT's Firearms & Archery LLC","608-329-4867","ctsfirearms@tds.net","42.617870331","-89.61953735","0"
"Big Bear Outfitters Inc","360-275-6631","","47.469680786","-122.8086777","0"
"Collinsville Outdoors","601-626-7333","","32.492393494","-88.84312439","0"
"Mt. George Archery","479-576-2786","mtgeorge@arkwest.com","35.053977966","-93.39351654","6"
"Gellco Outdoors","479-646-2401","","35.327274323","-94.38904572","6"
"Spillway Sportsman","225-749-3680","","30.414295197","-91.22441101","0"
"Bucksport Sporting Goods","707-442-1832","","40.773532867","-124.1909561","6"
"Gun World and Archery","775-738-2666","gunworld@frontiernet.net","40.838317871","-115.7896576","0"
"All Pro Auto Glass & Archery","870-741-3424","allproautoglass@hotmail.com","36.222324371","-93.07733917","6"
"U Need It Archery","931-739-7485","","36.002685547","-85.39226532","5"
"Wildlife Sport #681","603-625-9958","","43.003269196","-71.39362335","5"
"Indian Creek Archery","815-792-8660","indiancreekarchery@sbcglobal.net","41.49274826","-88.81531525","6"
"Bac Entertainment","352-465-7200","bacarchery@bellsouth.net","29.187374115","-82.55397034","6"
"Big Timber Archery","780-539-9594","","55.160915375","-118.8305893","6"
"Blind Ambition Hunting Supply","888-317-7355","info@bahunting.com","43.142101288","-89.64820099","0"
"B & D Gunsmoke LLC","518-280-2203","gunsmoketradingpost@gmail.com","42.813064575","-73.98165894","6"
"Point Blank Sporting Goods","956-992-8799","","26.201608658","-98.20743561","0"
"Hunters Haven","217-359-1920","hunters-haven@live.com","40.134807587","-88.26180267","6"
"L & M Outdoors","423-584-0464","","35.099182129","-84.82418823","6"
"Asuncion Archery","805-712-8406","","35.430744171","-120.6053391","6"
"Bucks and Jakes","812-402-1140","","37.974517822","-87.64282227","5"
"The Harvest Archery Pro Shop","423-618-1801","theharvestaps@gmail.com","35.491962433","-85.01435852","6"
"Glacial Lakes Archery","507-530-8712","","44.583686829","-97.2123642","0"
"Hobby Stop","707-962-3082","hobbystopfb@yahoo.com","39.41443634","-123.8082581","6"
"The Barryville Sportsman","845-557-9907","info@barryvillesportsman.com","41.47869873","-74.91919708","6"
"Instacash Pawn and Archery","936-569-7210","","31.583000183","-94.66889954","0"
"Wings & Whitetails","903-693-6129","wingsandwhitetails13@yahoo.com","32.148300171","-94.33589935","6"
"Wilde Arrow Archery","801-546-0962","jeremiah@wildearrowarchery.com","40.922355652","-111.8945312","6"
"Archers Alley","217-853-5961","","39.880237579","-88.92336273","6"
"Bay Archery Sales, Co.","989-894-5800","","43.595188141","-83.84972382","0"
"Bow Pro Shop LLC","918-683-8879","bowproshop@yahoo.com","35.769130707","-95.37606812","6"
"Oceans East","757-464-6545","","36.88432312","-76.18172455","6"
"Winchester Archery","573-803-0745","winchesterarchery@charter.net","37.103458405","-89.92588806","6"
"Ultimate Outdoors","724-733-2121","","40.478679657","-79.70588684","0"
"Joe's Sporting Good","423-623-0226","","36.000900269","-83.23429871","6"
"Toowoomba Archery Supplies","0746347682","","-27.54343605","151.91040039","3"
"Smith Point Sport","631-289-3399","","40.766635895","-73.00881195","6"
"Archery Country","320-253-4786","","45.199058533","-93.54839325","3"
"Weaknecht Archery","610-683-7405","","40.533908844","-75.8060379","0"
"Mill Creek Sports & Outdoors","302-698-3337","","39.119373322","-75.53432465","0"
"Marchio's Sport Hut","717-632-0777","MARCHIOS1@COMCAST.NET","39.824176788","-77.00306702","6"
"His and Her Archery","843-908-0153","","32.891601562","-80.81990051","0"
"Stick & String Sports","250-510-7845","","48.798301697","-123.7229996","0"
"Hardnocks Archery","937-836-2248","hardnocksarchery@yahoo.com","39.872161865","-84.29672241","6"
"Hard Nocks Archery","937-836-2248","hardnocksarchery@yahoo.com","39.872161865","-84.29672241","6"
"FREEDOM FIREARMS","423-765-2760","FREEDOMFIREARMS1@GMAIL.COM","36.559181213","-82.56641388","0"
"Infinity Outdoors LLC","989-224-7163","","43.001186371","-84.5446701","6"
"Killshot Outdoors","575-622-1315","killshot_outdoors@yahoo.com","33.419734955","-104.5057907","0"
"The Arrow Shop","918-333-8025","thearrowshop@yahoo.com","36.757610321","-95.93943787","0"
"Tent City Outfitters","905-660-6885","","43.787075043","-79.47353363","5"
"Rack N Reel","(802)345-5296","","44.291488647","-73.24190521","5"
"Sheds Hunting Supply","828-399-0108","","35.3712883","-83.20606232","5"
"Turner's Outdoorsman","909-590-7225","","33.983081818","-117.7111893","3"
"Magnum Archery","+27 (012) 802 0628","seppie@magnumarchery.co.za","-25.78930092","28.468900681","4"
"Magnum Archery","+27 (011) 393 6155","dale@magnumarchery.co.za","-26.09900093","28.196399689","4"
"Magnum Archery","+27 (016) 976 3394","leon@magnumarchery.co.za","-26.78980064","27.819400787","4"
"Pats Archery","08 85526722","","-35.54896545","138.62272644","4"
"Broadside Archery","011 61262281668","","-35.33002853","149.18453979","3"
"REAL DEAL OUTDOORS","304-948-1400","","38.311965942","-82.21207428","6"
"ARCHERS CHOICE BOWHUNTING EQUIPMENT","423-443-4118","INFO@ARCHERSCHOICESTORE.COM","35.113243103","-85.26406097","0"
"FUR FIN & FEATHERS","715-349-8445","","45.78578186","-92.38102722","0"
"TOLLESBORO OUTDOOR & PAWN","606-798-3302","tborooutdoor@windstream.net","38.300624847","-83.88936615","6"
"SALUDA RIVER ARCHERY","864-385-4117","SALUDARIVERARCHERY@GMAIL.COM","34.785419464","-82.47587585","6"
"CHAG'S","504-455-8636","CHAG1@AOL.COM","30.005170822","-90.18946075","0"
"CEDAR ROCK OUTDOORS","706-553-5650","CEDARROCKOUTDOORS@HOTMAIL.COM","32.978328705","-84.59827423","6"
"PELKEY'S ARCHERY","802-524-2582","","44.803371429","-73.11271667","6"
"SOUTHEAST ARCHERY, LLC","334-791-2318","","31.17440033","-85.40299988","6"
"TRIPLE THREAT OUTDOORS","740-446-7670","","38.806179047","-82.20796204","0"
"ABSOLUTE ARCHERY","530-672-1002","","38.664157867","-120.9390869","6"
"OUTFITTERS RX","870-367-7296","OUTFITTERSRX@YAHOO.COM","33.642807007","-91.80096436","0"
"RED ARROW ARCHERY SUPPLIES","616-901-1778","REDARROWS99@GMAIL.COM","42.999664307","-85.35098267","0"
"C & B Archery","516-933-2697","CBARCHERY@VERIZON.NET","40.760238647","-73.50907135","6"
"O'DELL'S OUTDOOR ARCHERY","256-561-3791","","34.209873199","-86.04425812","6"
"PAT'S ARCHERY","918-756-4632","","35.711677551","-96.01320648","5"
"POWERHOUSE OUTDOOR EQUIPMENT","229-387-7000","POWERHOUSEEQUIPMENT@HOTMAIL.COM","31.455348969","-83.51229858","6"
"TEN POINT ARCHERY & TACKLE INC","705-222-0010","TENPOINTARCHERY@HOTMAIL.COM","46.585128784","-81.30284119","5"
"LOUISIANA OUTDOORS","985-863-5263","","30.380411148","-89.73892975","0"
"NORTH AMERICAN OUTFITTERS","618-651-1800","NAOARCHERY@YAHOO.COM","38.761043549","-89.6587677","6"
"NORTH 40 OUTFITTERS","406-761-6623","","47.79524231","-117.3496552","0"
"BIG JOHN'S RACKS N REELS","812-295-3771","","38.67773056","-86.91294861","0"
"GATEWAY ARCHERY & OUTDOORS","859-398-9456","","38.014724731","-83.90991211","0"
"ALL SEASONS OUTDOOR & PAWN","704-985-5151","","35.263206482","-80.39671326","6"
"HUNTERS ANGLERS & ARCHERS","810-364-0225","","42.915390015","-82.48707581","0"
"SPORTSMANS ARCHERY & TAXIDERMY","573-231-6337","SPORTSMANSDREAMTAXIDERMY@HOTMAIL.COM","39.64994812","-91.4199295","0"
"THE MUSKET SHOP II","812-486-6811","","38.664714813","-87.0443573","0"
"GREAT LAKES OUTDOOR SUPPLY","440-632-9151","","41.463817596","-81.07250214","0"
"NO LIMITS OUTDOORS","712-580-7000","NOLIMITSOUTDOORS@SMUNET.NET","43.125835419","-95.1476059","0"
"Blade Barrel & Reel Outdoors Inc.","843-527-4298","bbroutdoors@gmail.com","33.373840332","-79.28881836","0"
"BOW ONLY PRO SHOP","352-460-2618","","28.571281433","-81.725914","0"
"MR GUNS & THE ARCHERY SHOP","319-277-1680","","42.519001007","-92.4461441","0"
"BANKS FOUR SEASONS SPORTS","651-388-4334","4SEASONSPORTS@GMAIL.COM","44.564716339","-92.56426239","0"
"DIAMONDBACK OUTFITTERS","903-934-9000","","32.575263977","-94.34615326","6"
"DIAMOND ARCHERY","316-265-0651","","37.666332245","-97.35115051","6"
"MAKING TRACKS OUTDOORS AND MORE","585-245-2207","","42.598690033","-77.87809753","0"
"MEGA SPORTS INC","573-756-8999","","37.792861938","-90.43701935","6"
"Scheels All Sports - Sioux City","712-252-1551","","42.446498871","-96.3526001","0"
"DISTRIBUTION PLEIN AIR","514-978-7445","DISTRIBUTIONPLEINAIR@YAHOO.COM","45.577198029","-73.7118454","0"
"PRECISION ARCHERIE","819-962-0489","PRECISIONARCHERIE@VIDEOTRON.CA","45.526348114","-75.75060272","3"
"Espace Nature","418-545-4440","espacenature@hotmail.com","48.391513824","-71.07328796","0"
"ZONE CHASSE ET PECHE","819-856-0787","ZONECHASSEPECHE@TLB.SYMPATICO.CA","48.100105286","-77.81251526","0"
"Alain Ferland Sports","450-548-5777","","45.573284149","-72.52237701","0"
"Backwoods Hunting Specialties","417-264-3025","","36.527042389","-91.53996277","0"
"B-12 Archery","317-339-1861","","39.64705658","-86.58676147","6"
"Green Top Sporting Goods","804-550-2188","","37.684562683","-77.45391083","0"
"ACCURATE ARCHERY","780-924-3250","ADMIN@ACCURATEARCHERY.CA","53.672977448","-114.3431244","3"
"Wildcat Archery","","","32.112094879","-81.23379517","0"
"Newbury Archery","860-491-9908","newburyarchery@sbcglobal.net","41.835769653","-73.27052307","6"
"CHASE OUTDOORS","715-551-7600","CHASEOUTDOORSLLC@GMAIL.COM","44.889789581","-89.62212372","0"
"Audette's Inc","207-377-2711","","44.308109283","-69.95650482","6"
"Four Rivers 3D Archery","218-476-2718","fourrivers3darchery@frontiernet.net","47.073623657","-92.99224854","0"
"D/D Archery","567-203-9703","","40.81452179","-82.34719086","0"
"PGF Archery and Hunting Supplies","252-339-1926","pgfarchery@gmail.com","36.217308044","-76.47645569","6"
"Lakeside Archery","207-829-6213","","43.811698914","-70.24542999","6"
"Mike's Outdoors","850-478-1129","","30.52287674","-87.27455902","6"
"R&M ARCHERY & FIREARMS","979-543-6948","","29.169984818","-96.31186676","0"
"FIREICE FIREARMS","712-225-2213","FIREICEFIREARMS@YAHOO.COM","42.767940521","-95.55413818","0"
"Southern Addiction Archery","706-358-1251","","32.68239975","-84.73996735","0"
"PIKE COUNTY ARCHERY","217-285-1610","PIKEARCHERY@GMAIL.COM","42.43447113","-73.25833893","6"
"CHICAGO ARCHERY","630-592-4758","INFO@CHICAGOARCHERY.COM","41.927970886","-87.94091797","6"
"CUTTING EDGE SPORTING GOODS INC","812-662-7398","","39.331451416","-85.48577881","6"
"Sportco","253-922-2581","","47.237998962","-122.3659973","3"
"FREEDOM ARCHERY","814-695-5355","","40.396572113","-78.4134903","6"
"NATIONSWIDE SPORTS","307-371-0793","NATIONSERIC@YAHOO.COM","44.804634094","-106.9531708","6"
"CRADLE BUTTE ARCHERY","307-751-8519","CRADLEBUTTEARCHERY@YAHOO.COM","44.33839798","-105.2081223","6"
"Deckers Bows","570-563-2499","deckerbow1@aol.com","41.534244537","-75.73602295","0"
"Full Draw Archery","502-598-8070","","37.980640411","-84.87905884","0"
"Shoot Em Up Archery","903-737-8595","","33.70356369","-95.50248718","0"
"Vance Outdoors","(614) 489-5025","","39.881946564","-82.93071747","0"
"Quality Archery","417-498-2310","","38.95501709","-94.57187653","6"
"Windy River Archery","541-386-1142","windyriverarchery@yahoo.com","45.709888458","-121.5065536","0"
"Hooks N Horns","217-537-3211","","39.056808472","-89.42601013","6"
"TROPHY HUNT ARCHERY PRO SHOP","207-793-8341","","43.626750946","-70.89561462","0"
"Strictly Fishing & Archery","815-741-0900","","41.51707077","-88.2113266","6"
"HODDYWELL ARCHERY SUPPLIES","618-95742410","","-31.63286018","116.47618103","0"
"Predator Archery and Bowhunting Pty Ltd","618 8999 9099","","-12.42838287","130.87034607","3"
"Arqueria Profesional Chile LTDA","00 56 2 24930672","dei@arqueriapro.com","-33.38119125","-70.53652191","0"
"ARCHERY ZONE","660-258-3010","","39.768867493","-93.06649017","6"
